type,zone,from_station_gen,from_station_name,to_station_name,lat_long,lat_long_string,long,lat,departure,arrival,duration,number_of_halts,distance,speed,departure_days,name
Exp,NR,Delhi,New Delhi,Rohtak Junction,"28.8911221,76.5789844","28.8911221,76.5789844",76.5789844,28.8911221,0.440972222,0.53125,2.166666667,4,72,33.2,SMTWTFS,New Delhi-Rohtak Express
Exp,NR,Delhi,Old Delhi,Panipat Junction,"29.3891542,76.9637660","29.3891542,76.9637660",76.963766,29.3891542,0.229166667,0.347222222,2.833333333,3,89,31.4,SMTWTFS,Delhi-Panipat Special
Klkt,ER,Kolkata,Kolkata Sealdah,Krishnanagar City,"23.4008744,88.5013962","23.4008744,88.5013962",88.5013962,23.4008744,0.711805556,0.8125,2.416666667,27,99,41,SMTWTFS,Sealdah KNJ Ladies Special
Klkt,SER,Kolkata,Kolkata Howrah Junction,Kharagpur Junction,"22.3408782,87.3258378","22.3408782,87.3258378",87.3258378,22.3408782,0.767361111,0.881944444,2.75,32,115,41.8,SMTWTFS,Howrah Kharagpur Ladies Special
SF,ER,Kolkata,Kolkata Howrah Junction,Bolpur Shantiniketan,"23.6800000,87.6800000","23.6800000,87.6800000",87.68,23.68,0.423611111,0.517361111,2.25,2,146,64.9,SMTWTFS,Shantiniketan Express
Exp,SR,Chennai,Chennai Central,Tirupati Main,"13.6284184,79.3875396","13.6284184,79.3875396",79.3875396,13.6284184,0.267361111,0.395833333,3.083333333,6,151,49,SMTWTFS,Saptagiri Express
Exp,SR,Chennai,Chennai Central,Tirupati Main,"13.6284184,79.3875396","13.6284184,79.3875396",79.3875396,13.6284184,0.576388889,0.708333333,3.166666667,6,151,47.7,SMTWTFS,Tirupati Express
Exp,SWR,Chennai,Chennai Central,Tirupati Main,"13.6284184,79.3875396","13.6284184,79.3875396",79.3875396,13.6284184,0.690972222,0.836805556,3.5,8,151,43.1,SMTWTFS,Garudadri Express
Exp,ER,Kolkata,Kolkata Howrah Junction,Bolpur Shantiniketan,"23.6800000,87.6800000","23.6800000,87.6800000",87.68,23.68,0.447916667,0.572916667,3,3,158,52.7,SMTWTFS,Howrah Bolpur KaviGuru Express
Exp,ER,Kolkata,Kolkata Chitpur,Berhampore Court,"24.0893317,88.2629521","24.0893317,88.2629521",88.2629521,24.0893317,0.854166667,0.013888889,3.833333333,6,182,47.5,S-T-T--,Kolkata Berhampore Court Express
Drnt,SER,Kolkata,Kolkata Howrah Junction,Digha Flag Station,"21.6268379,87.5222746","21.6268379,87.5222746",87.5222746,21.6268379,0.46875,0.59375,3,0,189,63,SMTWTFS,Howrah-Digha AC Duronto Express
SF,SER,Kolkata,Kolkata Howrah Junction,Digha Flag Station,"21.6268379,87.5222746","21.6268379,87.5222746",87.5222746,21.6268379,0.277777778,0.416666667,3.333333333,6,189,56.7,SMTWTFS,Tamralipta Express
Exp,SER,Kolkata,Kolkata Howrah Junction,Digha Flag Station,"21.6268379,87.5222746","21.6268379,87.5222746",87.5222746,21.6268379,0.59375,0.743055556,3.583333333,6,189,52.7,SMTWTFS,Kandari Express
SF,CR,Mumbai,Mumbai CST,Pune,"18.5204303,73.8567437","18.5204303,73.8567437",73.8567437,18.5204303,0.28125,0.411111111,3.116666667,3,192,61.6,SMTWTFS,MumbaiCST-Pune SF InterCity
SF,CR,Mumbai,Mumbai CST,Pune,"18.5204303,73.8567437","18.5204303,73.8567437",73.8567437,18.5204303,0.715277778,0.850694444,3.25,3,192,59.1,SMTWTFS,Deccan Queen SF Express
SF,CR,Mumbai,Mumbai CST,Pune,"18.5204303,73.8567437","18.5204303,73.8567437",73.8567437,18.5204303,0.684027778,0.828472222,3.466666667,4,192,55.4,SMTWTFS,Pragati Superfast Express
SF,CR,Mumbai,Mumbai CST,Pune,"18.5204303,73.8567437","18.5204303,73.8567437",73.8567437,18.5204303,0.236111111,0.380555556,3.466666667,6,192,55.4,SMTWTFS,Indrayani SF Express
Exp,CR,Mumbai,Mumbai CST,Pune,"18.5204303,73.8567437","18.5204303,73.8567437",73.8567437,18.5204303,0.298611111,0.465277778,4,10,192,48,SMTWTFS,Deccan Express
Exp,CR,Mumbai,Mumbai CST,Pune,"18.5204303,73.8567437","18.5204303,73.8567437",73.8567437,18.5204303,0.604166667,0.777777778,4.166666667,10,192,46.1,SMTWTFS,Sinhagad Express
Exp,NCR,Delhi,New Delhi,Agra Cantt.,"27.1553965,78.0108205","27.1553965,78.0108205",78.0108205,27.1553965,0.736111111,0.909722222,4.166666667,14,195,46.8,SMTWTFS,NewDelhi-Agra InterCity Express
Exp,SR,Chennai,Chennai Egmore,Puducherry,"11.9138598,79.8144722","11.9138598,79.8144722",79.8144722,11.9138598,0.756944444,0.909722222,3.666666667,8,196,53.5,SMTWTFS,Chennai Egmore Puducherry Express
SF,ER,Kolkata,Kolkata Howrah Junction,Asansol Junction,"23.6912875,86.9747658","23.6912875,86.9747658",86.9747658,23.6912875,0.763888889,0.902777778,3.333333333,5,200,60,SMTWTFS,Agniveena Express
SF,ER,Kolkata,Kolkata Howrah Junction,Rampur Hat,"24.1759890,87.7858460","24.1759890,87.7858460",87.785846,24.175989,0.5,0.649305556,3.583333333,7,207,57.8,SMTWTFS,Howrah-Rampur Hat SF Express
Exp,ER,Kolkata,Kolkata Howrah Junction,Siuri,"23.9010210,87.5359760","23.9010210,87.5359760",87.535976,23.901021,0.357638889,0.569444444,5.083333333,4,211,41.5,SMTWTFS,Howrah-Siuri Intercity Express
Exp,ER,Kolkata,Kolkata Sealdah,Rampur Hat,"24.1759890,87.7858460","24.1759890,87.7858460",87.785846,24.175989,0.538194444,0.704861111,4,4,213,53.3,S-T-T--,Sealdah-RampurHat Intercity Express
Exp,NWR,Delhi,Delhi Sarai Rohilla,Sadulpur Junction,"28.3000000,74.9500000","28.3000000,74.9500000",74.95,28.3,0.361111111,0.534722222,4.166666667,6,220,52.8,SM-WTFS,Delhi Sarai Rohilla Sadulpur Express
Exp,ER,Kolkata,Kolkata Sealdah,Asansol Junction,"23.6912875,86.9747658","23.6912875,86.9747658",86.9747658,23.6912875,0.694444444,0.871527778,4.25,6,220,51.8,#NAME?,Sealdah-Asansol InterCity Express
Exp,SR,Chennai,Chennai Central,Tiruppattur,"12.4893810,78.5679240","12.4893810,78.5679240",78.567924,12.489381,0.746527778,0.9375,4.583333333,14,220,48,SMTWTFS,Yelagiri Express
Exp,ER,Kolkata,Kolkata Chitpur,Lalgola,"24.4166667,88.2500000","24.4166667,88.2500000",88.25,24.4166667,0.284722222,0.506944444,5.333333333,8,223,41.8,SMTWTFS,Hazarduari Express
Exp,ER,Kolkata,Kolkata Sealdah,Rampur Hat,"24.1759890,87.7858460","24.1759890,87.7858460",87.785846,24.175989,0.309027778,0.510416667,4.833333333,7,226,46.8,#NAME?,Maa Tara Express
Exp,ER,Kolkata,Kolkata Sealdah,Lalgola,"24.4166667,88.2500000","24.4166667,88.2500000",88.25,24.4166667,0.767361111,0.954861111,4.5,9,227,50.4,SMTWTFS,Bhagirathi Express
SF,SER,Kolkata,Kolkata Shalimar,Bankura,"23.1645430,87.0624261","23.1645430,87.0624261",87.0624261,23.164543,0.277777778,0.454861111,4.25,6,229,53.9,#NAME?,Rajya Rani Express
Exp,NR,Delhi,Old Delhi,Kotdwara,"29.7432940,78.5060410","29.7432940,78.5060410",78.506041,29.743294,0.305555556,0.597222222,7,11,238,34,SMTWTFS,Garhwal Express
SKr,NER,Delhi,Old Delhi,Ramnagar,"29.3947643,79.1264997","29.3947643,79.1264997",79.1264997,29.3947643,0.666666667,0.857638889,4.583333333,3,239,52.1,SMTWTFS,Uttarakhand Sampark Kranti Express Slip
Exp,NR,Delhi,Old Delhi,Ramnagar,"29.3947643,79.1264997","29.3947643,79.1264997",79.1264997,29.3947643,0.944444444,0.204861111,6.25,5,239,38.2,SMTWTFS,Ranikhet Express Slip
Exp,ER,Kolkata,Kolkata Howrah Junction,Siuri,"23.9010210,87.5359760","23.9010210,87.5359760",87.535976,23.901021,0.28125,0.486111111,4.916666667,8,241,49,SMTWTFS,Hool Express
Exp,?,Delhi,Delhi Sarai Rohilla,Kotdwara,"29.7432940,78.5060410","29.7432940,78.5060410",78.506041,29.743294,0.895833333,0.246527778,8.416666667,13,243,28.9,SMTWTFS,Mussoorie Express Slip
SF,CR,Mumbai,Mumbai Lokmanya Tilak Terminus,Manmad Junction,"20.2498245,74.4380905","20.2498245,74.4380905",74.4380905,20.2498245,0.625,0.809027778,4.416666667,8,245,55.5,SMTWTFS,Mumbai LTT- Manmad Express
SF,SER,Kolkata,Kolkata Howrah Junction,Tatanagar Junction,"22.7683344,86.2010774","22.7683344,86.2010774",86.2010774,22.7683344,0.729166667,0.892361111,3.916666667,6,250,63.8,SMTWTFS,Steel Express
SF,WR,Mumbai,Mumbai Bandra Terminus,Surat,"21.1950000,72.8194440","21.1950000,72.8194440",72.819444,21.195,0.284722222,0.465277778,4.333333333,7,252,58.2,SMTWTFS,Bandra Surat InterCity Express
Exp,NR,Delhi,New Delhi,Bareilly,"28.3670355,79.4304381","28.3670355,79.4304381",79.4304381,28.3670355,0.690972222,0.913194444,5.333333333,13,258,48.4,SMTWTFS,NewDelhi-Bareilly InterCity
SF,ER,Kolkata,Kolkata Howrah Junction,Dhanbad Junction,"23.7909631,86.4298023","23.7909631,86.4298023",86.4298023,23.7909631,0.638888889,0.819444444,4.333333333,5,259,59.8,SMT-TF-,Howrah-Dhanbad AC DD Express
SF,ER,Kolkata,Kolkata Howrah Junction,Dhanbad Junction,"23.7909631,86.4298023","23.7909631,86.4298023",86.4298023,23.7909631,0.722222222,0.902777778,4.333333333,11,259,59.8,SMTWTFS,Coalfield Express
SF,CR,Mumbai,Mumbai CST,Manmad Junction,"20.2498245,74.4380905","20.2498245,74.4380905",74.4380905,20.2498245,0.760416667,0.951388889,4.583333333,8,261,56.9,SMTWTFS,Panchavati Express
SF,WR,Mumbai,Mumbai Central,Surat,"21.1950000,72.8194440","21.1950000,72.8194440",72.819444,21.195,0.746527778,0.940972222,4.666666667,12,263,56.4,SMTWTFS,Flying Rani Express
Exp,SER,Kolkata,Kolkata Shalimar,Baripada,"21.9361950,86.7344870","21.9361950,86.7344870",86.734487,21.936195,0.277777778,0.486111111,5,8,265,53,S--WT--,Shalimar-Baripada Express
Exp,ECR,Kolkata,Kolkata Howrah Junction,Dhanbad Junction,"23.7909631,86.4298023","23.7909631,86.4298023",86.4298023,23.7909631,0.260416667,0.465277778,4.916666667,14,271,55.1,SMTWTFS,Black Diamond Express
Exp,NR,Delhi,Delhi Anand Vihar Terminus,Kathgodam,"29.2693264,79.5441198","29.2693264,79.5441198",79.5441198,29.2693264,0.25,0.496527778,5.916666667,6,271,45.8,S--W-F-,Anand Vihar-Kathgodam AC Express
Exp,NR,Delhi,Old Delhi,Bareilly,"28.3670355,79.4304381","28.3670355,79.4304381",79.4304381,28.3670355,0.253472222,0.541666667,6.916666667,19,274,39.6,SMTWTFS,Delhi-Bareilly Express
Exp,ER,Kolkata,Kolkata Howrah Junction,Azimganj Junction,"24.2295283,88.2598064","24.2295283,88.2598064",88.2598064,24.2295283,0.944444444,0.1875,5.833333333,9,278,47.7,SMTWTFS,Kaviguru Express
Exp,NER,Delhi,Old Delhi,Kathgodam,"29.2693264,79.5441198","29.2693264,79.5441198",79.5441198,29.2693264,0.944444444,0.215277778,6.5,10,278,42.8,SMTWTFS,Ranikhet Express
SKr,NER,Delhi,Old Delhi,Kathgodam,"29.2693264,79.5441198","29.2693264,79.5441198",79.5441198,29.2693264,0.666666667,0.944444444,6.666666667,7,278,41.7,SMTWTFS,Uttarakhand Sampark Kranti Express
Exp,ER,Kolkata,Kolkata Howrah Junction,Azimganj Junction,"24.2295283,88.2598064","24.2295283,88.2598064",88.2598064,24.2295283,0.253472222,0.545138889,7,13,278,39.7,SMTWTFS,Ganadevta Express
Shtb,NR,Delhi,New Delhi,Kalka,"30.8369760,76.9342950","30.8369760,76.9342950",76.934295,30.836976,0.71875,0.888888889,4.083333333,3,303,74.2,SMTWTFS,New Delhi-Kalka Shatabdi
Shtb,NR,Delhi,New Delhi,Kalka,"30.8369760,76.9342950","30.8369760,76.9342950",76.934295,30.836976,0.319444444,0.489583333,4.083333333,4,303,74.2,SMTWTFS,Kalka Shatabdi Express
SF,NWR,Delhi,Delhi Sarai Rohilla,Jaipur Junction,"26.9209850,75.7854754","26.9209850,75.7854754",75.7854754,26.920985,0.732638889,0.920138889,4.5,2,303,67.3,SMTWTFS,Delhi Sarai Rohilla -Jaipur SF Special
SF,NR,Delhi,New Delhi,Dehradun,"30.3164945,78.0321918","30.3164945,78.0321918",78.0321918,30.3164945,0.996527778,0.236111111,5.75,5,303,52.7,SMTWTFS,New Delhi-Dehradun AC Express
JShtb,NR,Delhi,New Delhi,Dehradun,"30.3164945,78.0321918","30.3164945,78.0321918",78.0321918,30.3164945,0.635416667,0.881944444,5.916666667,7,303,51.2,SMTWTFS,Dehradun Jan Shatabdi Express
Exp,NR,Delhi,Delhi Sarai Rohilla,Kalka,"30.8369760,76.9342950","30.8369760,76.9342950",76.934295,30.836976,0.239583333,0.465277778,5.416666667,10,305,56.3,SMTWTFS,Himalayan Queen
SF,SER,Kolkata,Kolkata Shalimar,Bhojudih Junction,"23.6420550,86.4468793","23.6420550,86.4468793",86.4468793,23.642055,0.322916667,0.545138889,5.333333333,11,311,58.3,#NAME?,Aranyak Express
Shtb,NR,Delhi,New Delhi,Dehradun,"30.3164945,78.0321918","30.3164945,78.0321918",78.0321918,30.3164945,0.284722222,0.527777778,5.833333333,6,315,54,SMTWTFS,New Delhi-Dehradun Shatabdi
Exp,ER,Kolkata,Kolkata Chitpur,Giridih,"24.1797410,86.3022310","24.1797410,86.3022310",86.302231,24.179741,0.84375,0.1875,8.25,9,322,39,S-TWTFS,Lal Quila Express Slip
SF,SER,Kolkata,Kolkata Howrah Junction,Purulia Junction,"23.3254134,86.3779031","23.3254134,86.3779031",86.3779031,23.3254134,0.701388889,0.930555556,5.5,12,323,58.7,SMTWTFS,Howrah Purulia Express
Shtb,NR,Delhi,New Delhi,Ludhiana Junction,"30.9124904,75.8479485","30.9124904,75.8479485",75.8479485,30.9124904,0.291666667,0.513888889,5.333333333,2,329,61.7,#NAME?,New Delhi-Ludhiana Shatabdi Express
Exp,ER,Kolkata,Kolkata Howrah Junction,Malda Town,"25.0108408,88.1410967","25.0108408,88.1410967",88.1410967,25.0108408,0.635416667,0.930555556,7.083333333,11,331,46.7,#NAME?,InterCity Express
SF,SER,Kolkata,Kolkata Howrah Junction,Purulia Junction,"23.3254134,86.3779031","23.3254134,86.3779031",86.3779031,23.3254134,0.25,0.493055556,5.833333333,11,333,57.1,SMTWTFS,Rupashi Bangla Express
SF,SR,Chennai,Chennai Egmore,Tiruchirappalli Junction,"10.7953287,78.6840598","10.7953287,78.6840598",78.6840598,10.7953287,0.65625,0.888888889,5.583333333,9,336,60.2,SMTWTFS,Pallavan Superfast Express
SF,CR,Mumbai,Mumbai Dadar Central,Sainagar Shirdi,"19.7769008,74.5053095","19.7769008,74.5053095",74.5053095,19.7769008,0.90625,0.160416667,6.1,6,336,55.1,#NAME?,Mumbai Dadar-Sainagar Shirdi Express
Exp,NR,Delhi,Old Delhi,Bhatinda Junction,"30.2109940,74.9454745","30.2109940,74.9454745",74.9454745,30.210994,0.621527778,0.930555556,7.416666667,15,337,45.4,SMTWTFS,Kissan Express
Exp,NR,Delhi,Delhi Sarai Rohilla,Dehradun,"30.3164945,78.0321918","30.3164945,78.0321918",78.0321918,30.3164945,0.895833333,0.333333333,10.5,17,339,32.3,SMTWTFS,Mussoorie Express
SF,SER,Kolkata,Kolkata Howrah Junction,Purulia Junction,"23.3254134,86.3779031","23.3254134,86.3779031",86.3779031,23.3254134,0.354166667,0.59375,5.75,6,340,59.1,#NAME?,Lalmati Express
Exp,ER,Kolkata,Kolkata Howrah Junction,Malda Town,"25.0108408,88.1410967","25.0108408,88.1410967",88.1410967,25.0108408,0.642361111,0.951388889,7.416666667,15,340,45.8,SMTWTFS,InterCity Express
Exp,ER,Kolkata,Kolkata Sealdah,Malda Town,"25.0108408,88.1410967","25.0108408,88.1410967",88.1410967,25.0108408,0.927083333,0.260416667,8,12,347,43.4,SMTWTFS,Sealdah-Malda Town Gour Express
Exp,CR,Chennai,Chennai Egmore,"Salem Junction, Tamil Nadu","11.5189079,79.3237463","11.5189079,79.3237463",79.3237463,11.5189079,0.958333333,0.284722222,7.833333333,12,353,45.1,SMTWTFS,Chennai Salem Express
SF,SWR,Chennai,Chennai Central,Bangalore City Junction,"12.9777803,77.5685757","12.9777803,77.5685757",77.5685757,12.9777803,0.649305556,0.899305556,6,11,358,59.7,SMTWTFS,Lalbagh Express
Shtb,SWR,Chennai,Chennai Central,Bangalore City Junction,"12.9777803,77.5685757","12.9777803,77.5685757",77.5685757,12.9777803,0.729166667,0.9375,5,2,362,72.4,SM-WTFS,Chennai Bangalore Shatabdi Express
SF,SWR,Chennai,Chennai Central,Bangalore City Junction,"12.9777803,77.5685757","12.9777803,77.5685757",77.5685757,12.9777803,0.96875,0.215277778,5.916666667,6,362,61.2,SMTWTFS,Chennai - Bangalore Mail
SF,SR,Chennai,Chennai Central,Bangalore City Junction,"12.9777803,77.5685757","12.9777803,77.5685757",77.5685757,12.9777803,0.302083333,0.555555556,6.083333333,10,362,59.5,SMTWTFS,Brindavan Express
SF,SWR,Chennai,Chennai Central,Bangalore City Junction,"12.9777803,77.5685757","12.9777803,77.5685757",77.5685757,12.9777803,0.565972222,0.836805556,6.5,17,362,55.7,SMTWTFS,Chennai-Bangalore Intercity Express
SF,SWR,Chennai,Chennai Central,Bangalore Yesvantpur Junction,"13.0232118,77.5513735","13.0232118,77.5513735",77.5513735,13.0232118,0.979166667,0.256944444,6.666666667,5,370,55.5,#NAME?,Chennai-Yesvantpur Weekly Express
Exp,NR,Delhi,Old Delhi,Una Himachal,"31.4684450,76.2707745","31.4684450,76.2707745",76.2707745,31.468445,0.947916667,0.326388889,9.083333333,23,371,40.8,SMTWTFS,Himachal Express
JShtb,SCR,Mumbai,Mumbai CST,Aurangabad,"19.8761653,75.3433139","19.8761653,75.3433139",75.3433139,19.8761653,0.576388889,0.857638889,6.75,5,374,55.4,SMTWTFS,Mumbai Aurangabad Jan Shatabdi
Exp,CR,Mumbai,Mumbai Dadar Central,Dhule,"20.9042201,74.7748979","20.9042201,74.7748979",74.7748979,20.9042201,0.989583333,0.309027778,7.666666667,15,375,48.9,SMTWTFS,Dadar Amritsar Express Slip
Exp,ER,Kolkata,Kolkata Chitpur,Dhaca Cantt. Bangladesh,"23.8196232,90.3972244","23.8196232,90.3972244",90.3972244,23.8196232,0.298611111,0.75,10.83333333,0,375,34.6,--T----,Maitree Express IR
Exp,ER,Kolkata,Kolkata Chitpur,Dhaca Cantt. Bangladesh,"23.8196232,90.3972244","23.8196232,90.3972244",90.3972244,23.8196232,0.298611111,0.75,10.83333333,0,375,34.6,#NAME?,Maitree Express BR
SF,WR,Mumbai,Mumbai Central,Vadodara Junction,"22.3073095,73.1810976","22.3073095,73.1810976",73.1810976,22.3073095,0.986111111,0.253472222,6.416666667,3,392,61.1,SMTWTFS,Mumbai Central -Vadodara Express
Exp,CR,Chennai,Chennai Egmore,Mettur Dam,"11.8037584,77.8074214","11.8037584,77.8074214",77.8074214,11.8037584,0.958333333,0.336805556,9.083333333,15,393,43.3,SMTWTFS,Chennai Salem Express Slip
Exp,SR,Chennai,Chennai Egmore,Mannargudi,"10.6648689,79.4507152","10.6648689,79.4507152",79.4507152,10.6648689,0.916666667,0.267361111,8.416666667,9,395,46.9,SMTWTFS,Mannai Express
Exp,SR,Chennai,Chennai Central,Erode Junction,"11.6686530,77.7622547","11.6686530,77.7622547",77.7622547,11.668653,0.944444444,0.267361111,7.75,16,396,51.1,SMTWTFS,Yercaud Express
JShtb,ER,Kolkata,Kolkata Howrah Junction,Barbil,"22.1053397,85.3789642","22.1053397,85.3789642",85.3789642,22.1053397,0.263888889,0.552083333,6.916666667,6,398,57.5,SMTWTFS,Barbil Janshatabdi
Exp,NWR,Delhi,Old Delhi,Bhatinda Junction,"30.2109940,74.9454745","30.2109940,74.9454745",74.9454745,30.210994,0.59375,0.927083333,8,18,399,49.9,SMTWTFS,Delhi Bhatinda Intercity Express
Exp,SR,Chennai,Chennai Egmore,Tiruchirappalli Junction,"10.7953287,78.6840598","10.7953287,78.6840598",78.6840598,10.7953287,0.347222222,0.690972222,8.25,15,401,48.6,SMTWTFS,Cholan Express (Day Express)
SF,NR,Delhi,Delhi Hazrat Nizamuddin,Jhansi Junction,"25.0457256,78.8049305","25.0457256,78.8049305",78.8049305,25.0457256,0.298611111,0.569444444,6.5,9,403,62,SMTWTFS,H.Nizamuddin-Jhansi Taj Express
JShtb,NR,Delhi,New Delhi,Una Himachal,"31.4684450,76.2707745","31.4684450,76.2707745",76.2707745,31.468445,0.607638889,0.923611111,7.583333333,11,410,54.1,SMTWTFS,New Delhi-Una Janshatabdi
Mail,NR,Delhi,Old Delhi,Hoshiarpur,"31.5322000,75.9172000","31.5322000,75.9172000",75.9172,31.5322,0.847222222,0.267361111,10.08333333,17,411,40.8,SMTWTFS,Jammu Mail
Shtb,ER,Kolkata,Kolkata Howrah Junction,Ranchi Junction,"22.9655604,85.9987331","22.9655604,85.9987331",85.9987331,22.9655604,0.253472222,0.548611111,7.083333333,7,423,59.7,#NAME?,Howrah-Ranchi Shatabdi Express
Exp,SER,Kolkata,Kolkata Howrah Junction,Ranchi Junction,"22.9655604,85.9987331","22.9655604,85.9987331",85.9987331,22.9655604,0.59375,0.927083333,8,7,423,52.9,SMT----,Howrah-Ranchi InterCity Express
Exp,SER,Kolkata,Kolkata Howrah Junction,"Hatia, Jharkhand","22.7492100,85.9169350","22.7492100,85.9169350",85.916935,22.74921,0.930555556,0.315972222,9.25,4,423,45.7,SMTWTFS,Howrah-Hatia Express
SF,NR,Delhi,Old Delhi,Shri Ganganagar,"29.9167000,73.8833000","29.9167000,73.8833000",73.8833,29.9167,0.548611111,0.861111111,7.5,12,424,56.5,SMTWTFS,Delhi Sriganganagar InterCity
Exp,SR,Chennai,Chennai Egmore,Kumbakonam,"10.9616945,79.3881132","10.9616945,79.3881132",79.3881132,10.9616945,0.9375,0.319444444,9.166666667,17,425,46.4,SMTWTFS,Rock Fort Express
JShtb,SR,Chennai,Chennai Central,Vijayawada Junction,"16.5182353,80.6184687","16.5182353,80.6184687",80.6184687,16.5182353,0.291666667,0.565972222,6.583333333,7,431,65.5,SM-WTFS,Chennai Vijayawada Jan Shatabdi Express
SF,SCR,Chennai,Chennai Central,Vijayawada Junction,"16.5182353,80.6184687","16.5182353,80.6184687",80.6184687,16.5182353,0.586805556,0.881944444,7.083333333,10,431,60.8,SMTWTFS,Pinakini Express
Exp,SR,Chennai,Chennai Egmore,Nagore,"10.8127803,79.8391001","10.8127803,79.8391001",79.8391001,10.8127803,0.96875,0.385416667,10,15,436,43.6,SMTWTFS,Kamban Express
Shtb,NCR,Delhi,New Delhi,Kanpur Central,"26.4543489,80.3512482","26.4543489,80.3512482",80.3512482,26.4543489,0.663194444,0.868055556,4.916666667,1,437,88.9,#NAME?,New Delhi-Kanpur Shatabdi Express
Exp,ER,Kolkata,Kolkata Chitpur,Balurghat,"25.2241800,88.7739330","25.2241800,88.7739330",88.773933,25.22418,0.538194444,0.920138889,9.166666667,8,438,47.8,-M-W-F-,Tebhaga Express
JShtb,ECoR,Kolkata,Kolkata Howrah Junction,Bhubaneswar,"20.2960587,85.8245398","20.2960587,85.8245398",85.8245398,20.2960587,0.565972222,0.847222222,6.75,7,439,65,#NAME?,Howrah-Bhubaneswar Jan Shatabdi Express
Exp,NR,Delhi,New Delhi,Jalandhar City,"31.3260152,75.5761829","31.3260152,75.5761829",75.5761829,31.3260152,0.618055556,0.979166667,8.666666667,19,439,50.7,SMTWTFS,New Delhi-Jalandhar Express
SF,NR,Delhi,New Delhi,Kanpur Central,"26.4543489,80.3512482","26.4543489,80.3512482",80.3512482,26.4543489,0.986111111,0.246527778,6.25,0,440,70.4,SMTWTFS,Shram Shakti Express
Shtb,NR,Delhi,New Delhi,Ajmer Junction,"26.7987444,75.0244674","26.7987444,75.0244674",75.0244674,26.7987444,0.253472222,0.527777778,6.583333333,5,443,67.3,SMTWTFS,New Delhi-Ajmer Shatabdi
Shtb,NR,Delhi,New Delhi,Amritsar Junction,"31.6313691,74.8602163","31.6313691,74.8602163",74.8602163,31.6313691,0.305555556,0.559027778,6.083333333,5,448,73.6,SMTW-FS,New Delhi-Amritsar Swarna Shatabdi Express
Shtb,NR,Delhi,New Delhi,Amritsar Junction,"31.6313691,74.8602163","31.6313691,74.8602163",74.8602163,31.6313691,0.6875,0.940972222,6.083333333,5,448,73.6,SMTWTFS,New Delhi-Amritsar Shatabdi Express
Shtb,NR,Delhi,New Delhi,Amritsar Junction,"31.6313691,74.8602163","31.6313691,74.8602163",74.8602163,31.6313691,0.305555556,0.559027778,6.083333333,5,448,73.6,----T--,Amritsar Shatabdi Express
SF,NR,Delhi,New Delhi,Amritsar Junction,"31.6313691,74.8602163","31.6313691,74.8602163",74.8602163,31.6313691,0.277777778,0.59375,7.583333333,9,448,59.1,SMTWTFS,Shan-e-Punjab Express
SF,NR,Delhi,New Delhi,Amritsar Junction,"31.6313691,74.8602163","31.6313691,74.8602163",74.8602163,31.6313691,0.565972222,0.899305556,8,13,448,56,SMTWTFS,NewDelhi-Amritsar SF InterCity
Exp,ER,Kolkata,Kolkata Sealdah,Balurghat,"25.2241800,88.7739330","25.2241800,88.7739330",88.773933,25.22418,0.927083333,0.402777778,11.41666667,25,454,39.8,S-TWTFS,Gour Express Slip
SF,CR,Mumbai,Mumbai CST,Solapur Junction,"17.6599188,75.9063906","17.6599188,75.9063906",75.9063906,17.6599188,0.945833333,0.289583333,8.25,12,455,55.2,SMTWTFS,Siddheshwar Express
JShtb,WCR,Delhi,Delhi Hazrat Nizamuddin,"Kota Junction, Rajasthan","25.2237992,75.8806269","25.2237992,75.8806269",75.8806269,25.2237992,0.555555556,0.819444444,6.333333333,8,458,72.3,SMTWTFS,Hazarat Nizamuddin-Kota Jan Shatabdi
SF,NWR,Delhi,Delhi Sarai Rohilla,Bikaner Junction,"28.0145575,73.3159695","28.0145575,73.3159695",73.3159695,28.0145575,0.295138889,0.635416667,8.166666667,11,458,56.1,SMTWTFS,Delhi Sarai Rohilla - Bikaner SF Intercity Express
SF,NWR,Delhi,Delhi Sarai Rohilla,Bikaner Junction,"28.0145575,73.3159695","28.0145575,73.3159695",73.3159695,28.0145575,0.982638889,0.322916667,8.166666667,9,458,56.1,#NAME?,Delhi SaraiRohilla-Bikaner Express
Exp,SER,Kolkata,Kolkata Howrah Junction,Ranchi Junction,"22.9655604,85.9987331","22.9655604,85.9987331",85.9987331,22.9655604,0.628472222,0.958333333,7.916666667,10,462,58.4,#NAME?,Howrah-Ranchi Intercity
Exp,ER,Kolkata,Kolkata Howrah Junction,Jamalpur Junction,"24.8367708,89.8759747","24.8367708,89.8759747",89.8759747,24.8367708,0.899305556,0.298611111,9.583333333,19,467,48.7,SMTWTFS,Jamalpur Express
Exp,NR,Delhi,Old Delhi,Attari,"31.5738889,74.1955556","31.5738889,74.1955556",74.1955556,31.5738889,0.961805556,0.302083333,8.166666667,0,472,57.8,S--W---,Delhi Attari Express
Exp,ER,Kolkata,Kolkata Chitpur,Radhikapur,"23.7246750,88.2675800","23.7246750,88.2675800",88.26758,23.724675,0.8125,0.284722222,11.33333333,14,476,42,SMTWTFS,Radhikapur Express
Exp,WR,Mumbai,Mumbai Bandra Terminus,Ahmedabad Junction,"23.0300000,72.5800000","23.0300000,72.5800000",72.58,23.03,0.819444444,0.201388889,9.166666667,20,481,52.5,SMTWTFS,Lokshakti Express
SF,NR,Delhi,Delhi Sarai Rohilla,Shri Ganganagar,"29.9167000,73.8833000","29.9167000,73.8833000",73.8833,29.9167,0.951388889,0.319444444,8.833333333,7,486,55,S-T-T--,DelhiSaraiRohilla-ShriGanganagar AC SF Express
Drnt,WR,Mumbai,Mumbai Central,Ahmedabad Junction,"23.0300000,72.5800000","23.0300000,72.5800000",72.58,23.03,0.975694444,0.25,6.583333333,0,491,74.6,-M-W-F-,Mumbai Central-Ahmedabad AC Duronto Express
Shtb,WR,Mumbai,Mumbai Central,Ahmedabad Junction,"23.0300000,72.5800000","23.0300000,72.5800000",72.58,23.03,0.267361111,0.548611111,6.75,7,491,72.7,#NAME?,Mumbai-Ahmedabad Shatabdi Express
SF,WR,Mumbai,Mumbai Central,Ahmedabad Junction,"23.0300000,72.5800000","23.0300000,72.5800000",72.58,23.03,0.569444444,0.892361111,7.75,9,491,63.4,SMTWTFS,Karnavati Express
SF,WR,Mumbai,Mumbai Central,Ahmedabad Junction,"23.0300000,72.5800000","23.0300000,72.5800000",72.58,23.03,0.951388889,0.288194444,8.083333333,3,491,60.7,S-T-T--,Mumbai Central - Ahmedabad SF Special
SF,WR,Mumbai,Mumbai Central,Ahmedabad Junction,"23.0300000,72.5800000","23.0300000,72.5800000",72.58,23.03,0.90625,0.267361111,8.666666667,12,491,56.7,SMTWTFS,Gujarat Mail
Exp,WR,Mumbai,Mumbai Central,Ahmedabad Junction,"23.0300000,72.5800000","23.0300000,72.5800000",72.58,23.03,0.239583333,0.628472222,9.333333333,22,491,52.6,SMTWTFS,Gujarat Express
Drnt,NR,Delhi,New Delhi,Lucknow,"26.8465108,80.9466832","26.8465108,80.9466832",80.9466832,26.8465108,0.979166667,0.298611111,7.666666667,0,493,64.3,S-T--F-,New Delhi-Lucknow AC Duronto Express
SF,NR,Delhi,New Delhi,Lucknow,"26.8465108,80.9466832","26.8465108,80.9466832",80.9466832,26.8465108,0.979166667,0.298611111,7.666666667,3,493,64.3,#NAME?,NewDelhi-Lucknow AC Express
SF,NR,Delhi,New Delhi,Lucknow,"26.8465108,80.9466832","26.8465108,80.9466832",80.9466832,26.8465108,0.923611111,0.28125,8.583333333,7,493,57.4,SMTWTFS,Lucknow Mail
Exp,NR,Delhi,New Delhi,Lucknow,"26.8465108,80.9466832","26.8465108,80.9466832",80.9466832,26.8465108,0.996527778,0.40625,9.833333333,2,493,50.1,-M-W-F-,New Delhi-Lucknow tri-weekly Special
Exp,NR,Delhi,Old Delhi,Pathankot,"32.2706402,75.6425537","32.2706402,75.6425537",75.6425537,32.2706402,0.923611111,0.333333333,9.833333333,16,496,50.4,-M-W-F-,Dhauladhar Express
Drnt,SR,Chennai,Chennai Central,Coimbatore Main Junction,"11.1123263,76.9359764","11.1123263,76.9359764",76.9359764,11.1123263,0.284722222,0.5625,6.666666667,0,497,74.6,SM-WTFS,Chennai Central-Coimbatore AC Duronto Express
SF,SR,Chennai,Chennai Central,Coimbatore Main Junction,"11.1123263,76.9359764","11.1123263,76.9359764",76.9359764,11.1123263,0.260416667,0.579861111,7.666666667,9,497,64.8,SMTWTFS,Kovai Express
SF,SR,Chennai,Chennai Central,Coimbatore Main Junction,"11.1123263,76.9359764","11.1123263,76.9359764",76.9359764,11.1123263,0.604166667,0.927083333,7.75,10,497,64.1,SMTWTFS,ChennaiCentral-Coimbatore InterCity
SF,SR,Chennai,Chennai Central,Coimbatore Main Junction,"11.1123263,76.9359764","11.1123263,76.9359764",76.9359764,11.1123263,0.923611111,0.256944444,8,6,497,62.1,SMTWTFS,Cheran Express
SF,SR,Chennai,Chennai Egmore,Madurai Junction,"9.9177100,78.1116300","9.9177100,78.1116300",78.11163,9.91771,0.53125,0.868055556,8.083333333,8,497,61.5,SMTWTFS,Vaigai Express
SF,SR,Chennai,Chennai Central,Coimbatore Main Junction,"11.1123263,76.9359764","11.1123263,76.9359764",76.9359764,11.1123263,0.9375,0.284722222,8.333333333,5,497,59.6,#NAME?,Chennai-Coimbatore Express
SF,SR,Chennai,Chennai Egmore,Madurai Junction,"9.9177100,78.1116300","9.9177100,78.1116300",78.11163,9.91771,0.885416667,0.260416667,9,9,497,55.2,SMTWTFS,Pandiyan Express
Exp,CR,Mumbai,Mumbai CST,"Daund Junction, Maharashtra","18.4630556,74.5788889","18.4630556,74.5788889",74.5788889,18.4630556,0.878472222,0.496527778,14.83333333,30,497,33.5,SMTWTFS,Mumbai -Daund Devagiri Express Slip
Shtb,SR,Chennai,Chennai Central,Mysore Junction,"12.9016746,77.4684458","12.9016746,77.4684458",77.4684458,12.9016746,0.25,0.541666667,7,1,500,71.4,SMT-TFS,Chennai-Mysore Shatabdi
SF,SER,Kolkata,Kolkata Shalimar,Puri,"19.8133822,85.8314655","19.8133822,85.8314655",85.8314655,19.8133822,0.875,0.246527778,8.916666667,9,500,56.1,---W---,Shalimar-Puri Express
SF,SWR,Chennai,Chennai Central,Mysore Junction,"12.9016746,77.4684458","12.9016746,77.4684458",77.4684458,12.9016746,0.979166667,0.357638889,9.083333333,9,500,55,----T--,Chennai-Mysore SF Express
Exp,SWR,Chennai,Chennai Central,Mysore Junction,"12.9016746,77.4684458","12.9016746,77.4684458",77.4684458,12.9016746,0.895833333,0.333333333,10.5,23,500,47.6,SMTWTFS,Kaveri Express
Drnt,ECoR,Kolkata,Kolkata Howrah Junction,Puri,"19.8133822,85.8314655","19.8133822,85.8314655",85.8314655,19.8133822,0.600694444,0.902777778,7.25,0,502,69.2,SMTWTFS,Howrah Puri Duronto Express
SF,SER,Kolkata,Kolkata Howrah Junction,Puri,"19.8133822,85.8314655","19.8133822,85.8314655",85.8314655,19.8133822,0.25,0.604166667,8.5,10,502,59.1,SMTWTFS,Dhauli Express
SF,SER,Kolkata,Kolkata Howrah Junction,Puri,"19.8133822,85.8314655","19.8133822,85.8314655",85.8314655,19.8133822,0.940972222,0.3125,8.916666667,12,502,56.3,SMTWTFS,Howrah-Puri Express
SF,SER,Kolkata,Kolkata Howrah Junction,Puri,"19.8133822,85.8314655","19.8133822,85.8314655",85.8314655,19.8133822,0.871527778,0.246527778,9,8,502,55.8,-----F-,Kolkata-Puri Express
SF,SER,Kolkata,Kolkata Howrah Junction,Puri,"19.8133822,85.8314655","19.8133822,85.8314655",85.8314655,19.8133822,0.871527778,0.246527778,9,8,502,55.8,-M-----,Howrah-Puri Express
GR,SER,Kolkata,Kolkata Howrah Junction,Puri,"19.8133822,85.8314655","19.8133822,85.8314655",85.8314655,19.8133822,0.871527778,0.246527778,9,7,502,55.8,--T-T--,Howrah Puri Garib Rath
Exp,ECoR,Kolkata,Kolkata Howrah Junction,Puri,"19.8133822,85.8314655","19.8133822,85.8314655",85.8314655,19.8133822,0.791666667,0.194444444,9.666666667,18,502,51.9,SMTWTFS,Sri Jagannath Express
SF,NR,Delhi,New Delhi,Lucknow,"26.8465108,80.9466832","26.8465108,80.9466832",80.9466832,26.8465108,0.260416667,0.520833333,6.25,4,511,81.8,SMTWTFS,NewDelh-Lucknowi Swarn Shatabdi Express
SF,NR,Delhi,New Delhi,Lucknow,"26.8465108,80.9466832","26.8465108,80.9466832",80.9466832,26.8465108,0.527777778,0.892361111,8.75,10,511,58.4,SMTWTFS,Gomti Express
Exp,CR,Mumbai,Mumbai CST,Shahu Maharaj Terminus,"16.7024706,74.2379246","16.7024706,74.2379246",74.2379246,16.7024706,0.849305556,0.305555556,10.95,16,518,47.3,SMTWTFS,Mahalaxmi Express
Exp,CR,Mumbai,Mumbai CST,Shahu Maharaj Terminus,"16.7024706,74.2379246","16.7024706,74.2379246",74.2379246,16.7024706,0.361111111,0.850694444,11.75,33,518,44.1,SMTWTFS,Koyna Express
Exp,CR,Mumbai,Mumbai CST,Shahu Maharaj Terminus,"16.7024706,74.2379246","16.7024706,74.2379246",74.2379246,16.7024706,0.743055556,0.253472222,12.25,26,518,42.3,SMTWTFS,Sahyadri Express
SF,SR,Chennai,Chennai Central,Puttaparthi,"14.1675000,77.8113889","14.1675000,77.8113889",77.8113889,14.1675,0.979166667,0.388888889,9.833333333,9,529,53.8,-----F-,Chennai-Sri Satya Sai Prasanti Nilayam SF Express
SF,CR,Mumbai,Mumbai CST,Latur,"18.3976800,76.5809710","18.3976800,76.5809710",76.580971,18.39768,0.875,0.270833333,9.5,9,530,55.8,SMTWTFS,Mumbai CST-Latur Superfast Express.
JShtb,ECR,Kolkata,Kolkata Howrah Junction,Patna Junction,"25.6035902,85.1366123","25.6035902,85.1366123",85.1366123,25.6035902,0.586805556,0.927083333,8.166666667,12,532,65.1,#NAME?,Howrah-Patna Jan Shatabdi
SF,SR,Chennai,Chennai Central,Mettupalayam,"11.2992899,76.9352420","11.2992899,76.9352420",76.935242,11.2992899,0.875,0.260416667,9.25,7,532,57.5,SMTWTFS,Nilgiri (Blue Mountain) Express
GR,ER,Kolkata,Kolkata Chitpur,Patna Junction,"25.6035902,85.1366123","25.6035902,85.1366123",85.1366123,25.6035902,0.833333333,0.229166667,9.5,11,534,56.2,#NAME?,Kolkata Chitpur Patna Garib Rath Express
Exp,ECR,Kolkata,Kolkata Howrah Junction,Darbhanga Junction,"26.1573879,85.9071330","26.1573879,85.9071330",85.907133,26.1573879,0.461805556,0.927083333,11.16666667,9,536,48,#NAME?,Howrah-Darbhanga Express
Exp,ECR,Kolkata,Kolkata Chitpur,Darbhanga Junction,"26.1573879,85.9071330","26.1573879,85.9071330",85.907133,26.1573879,0.444444444,0.927083333,11.58333333,6,539,46.5,-M--T--,Maithili Express
SF,ER,Kolkata,Kolkata Howrah Junction,Danapur,"25.6358110,85.0465160","25.6358110,85.0465160",85.046516,25.635811,0.857638889,0.277777778,10.08333333,23,541,53.7,SMTWTFS,Howrah- Danapur Express
Exp,ER,Kolkata,Kolkata Chitpur,Jogbani,"26.3962182,87.2593454","26.3962182,87.2593454",87.2593454,26.3962182,0.871527778,0.46875,14.33333333,9,542,37.8,-M-W-F-,Kolkata - Jogbani (Triweekly) Express
Exp,NER,Kolkata,Kolkata Howrah Junction,Muzaffarpur Junction,"26.1222744,85.3778841","26.1222744,85.3778841",85.3778841,26.1222744,0.46875,0.951388889,11.58333333,10,549,47.4,---W---,Howrah-Muzaffarpur JanSadharan Express
Exp,ER,Kolkata,Kolkata Chitpur,Darbhanga Junction,"26.1573879,85.9071330","26.1573879,85.9071330",85.907133,26.1573879,0.871527778,0.381944444,12.25,11,552,45.1,S---T--,Mithilanchal Express
Exp,ER,Kolkata,Kolkata Howrah Junction,Rajgir,"25.0300000,85.4200000","25.0300000,85.4200000",85.42,25.03,0.847222222,0.506944444,15.83333333,35,552,34.9,SMTWTFS,Howrah-Rajgir Express Slip
Exp,NR,Delhi,Old Delhi,Pathankot,"32.2706402,75.6425537","32.2706402,75.6425537",75.6425537,32.2706402,0.333333333,0.75,10,11,554,55.4,S-T--F-,Delhi-Pathankot Express
SF,SR,Chennai,Chennai Egmore,Madurai Junction,"9.9177100,78.1116300","9.9177100,78.1116300",78.11163,9.91771,0.947916667,0.368055556,10.08333333,9,561,55.6,S----F-,Chennai Egmore Madurai BI-Weekly Superfast Express
Exp,ER,Kolkata,Kolkata Chitpur,Muzaffarpur Junction,"26.1222744,85.3778841","26.1222744,85.3778841",85.3778841,26.1222744,0.871527778,0.385416667,12.33333333,11,566,45.9,--T----,Tirhut Express
SF,ER,Kolkata,Kolkata Sealdah,"New Jalpaiguri, West Bengal","26.5501631,88.7049705","26.5501631,88.7049705",88.7049705,26.5501631,0.920138889,0.333333333,9.916666667,4,567,57.2,SMTWTFS,Darjeeling Mail
SF,ER,Kolkata,Kolkata Sealdah,"New Jalpaiguri, West Bengal","26.5501631,88.7049705","26.5501631,88.7049705",88.7049705,26.5501631,0.954861111,0.378472222,10.16666667,5,567,55.8,SMTWTFS,Padatik Express
Raj,NR,Delhi,New Delhi,Jammu Tawi,"33.3773471,74.3107212","33.3773471,74.3107212",74.3107212,33.3773471,0.861111111,0.236111111,9,3,577,64.1,SMTWTFS,Jammu Rajdhani Express
Drnt,NR,Delhi,Delhi Sarai Rohilla,Jammu Tawi,"33.3773471,74.3107212","33.3773471,74.3107212",74.3107212,33.3773471,0.927083333,0.298611111,8.916666667,0,578,64.8,S-T--F-,Delhi Sarai Rohilla Jammu Tawi Duronto Express
Exp,ER,Kolkata,Kolkata Sealdah,"Saharsa Junction, Patna","25.6104600,85.1416670","25.6104600,85.1416670",85.141667,25.61046,0.840277778,0.510416667,16.08333333,28,589,36.6,SMTWTFS,Hatey Bazare Express
Exp,SR,Chennai,Chennai Egmore,Rameswaram,"9.2876254,79.3129291","9.2876254,79.3129291",79.3129291,9.2876254,0.708333333,0.197916667,11.75,16,600,51.1,SMTWTFS,Setu Express
SKr,NCR,Delhi,Delhi Hazrat Nizamuddin,Khajuraho,"24.8318452,79.9198549","24.8318452,79.9198549",79.9198549,24.8318452,0.84375,0.274305556,10.33333333,7,604,58.5,S-T-TFS,Nizamuddin KhajurahoLink Express Slip
Exp,SCR,Mumbai,Mumbai CST,Huzur Sahib Nanded,"19.1528647,77.3186221","19.1528647,77.3186221",77.3186221,19.1528647,0.256944444,0.746527778,11.75,18,610,51.9,SMTWTFS,Tapovan Express
Exp,NR,Delhi,Old Delhi,"Faizabad, Uttar Pradesh","26.7793470,82.1421590","26.7793470,82.1421590",82.142159,26.779347,0.777777778,0.305555556,12.66666667,7,615,48.6,SMTWTFS,Delhi-Faizabad Express
SKr,NR,Delhi,Delhi Sarai Rohilla,Jodhpur Junction,"26.4902597,72.6718944","26.4902597,72.6718944",72.6718944,26.4902597,0.934027778,0.34375,9.833333333,7,616,62.6,S--W-F-,Rajasthan Sampark Kranti Express
SF,NR,Delhi,Old Delhi,Jodhpur Junction,"26.4902597,72.6718944","26.4902597,72.6718944",72.6718944,26.4902597,0.871527778,0.3125,10.58333333,16,620,58.6,SMTWTFS,Mandore Express
SF,ER,Kolkata,Kolkata Chitpur,Haldibari,"26.3461060,88.9054570","26.3461060,88.9054570",88.905457,26.346106,0.378472222,0.850694444,11.33333333,7,620,54.7,#NAME?,Kolkata Haldibari SF Express
SF,NR,Delhi,Delhi Sarai Rohilla,Jodhpur Junction,"26.4902597,72.6718944","26.4902597,72.6718944",72.6718944,26.4902597,0.934027778,0.381944444,10.75,14,622,57.9,-M--T--,Delhi Sarai Rohilla-Jodhpur Express
Exp,ER,Kolkata,Kolkata Sealdah,"Jaynagar, Bihar","26.5852483,86.1293792","26.5852483,86.1293792",86.1293792,26.5852483,0.652777778,0.329861111,16.25,20,624,38.4,SMTWTFS,Ganga Sagar Express
Mail,ER,Kolkata,Kolkata Sealdah,Haldibari,"26.3461060,88.9054570","26.3461060,88.9054570",88.905457,26.346106,0.920138889,0.642361111,17.33333333,10,624,36,SMTWTFS,Darjeeling Mail Slip
Exp,ER,Kolkata,Kolkata Sealdah,Haldibari,"26.3461060,88.9054570","26.3461060,88.9054570",88.905457,26.346106,0.569444444,0.211805556,15.41666667,27,628,40.7,S-TWTFS,Testa Torsa Express Slip
SKr,NR,Delhi,New Delhi,Udhampur,"32.9189300,75.1312710","32.9189300,75.1312710",75.131271,32.91893,0.868055556,0.336805556,11.25,8,630,56,SMTWTFS,Uttar Sampark Kranti Express
Exp,NR,Delhi,Delhi Anand Vihar Terminus,Jammu Tawi,"33.3773471,74.3107212","33.3773471,74.3107212",74.3107212,33.3773471,0.96875,0.493055556,12.58333333,7,633,50.3,#NAME?,Anand Vihar T.-Jammu Tawi Special
Drnt,NCR,Delhi,New Delhi,Allahabad Junction,"25.4004598,81.5807583","25.4004598,81.5807583",81.5807583,25.4004598,0.958333333,0.263888889,7.333333333,0,634,86.5,S--W-F-,New Delhi-Allahabad Duronto Express
SF,NCR,Delhi,New Delhi,Allahabad Junction,"25.4004598,81.5807583","25.4004598,81.5807583",81.5807583,25.4004598,0.892361111,0.28125,9.333333333,5,634,67.9,SMTWTFS,Prayagraj Express
Mail,NR,Delhi,Old Delhi,Udhampur,"32.9189300,75.1312710","32.9189300,75.1312710",75.131271,32.91893,0.847222222,0.486111111,15.33333333,27,637,41.5,SMTWTFS,Jammu Mail
Exp,NR,Delhi,Old Delhi,Jammu Tawi,"33.3773471,74.3107212","33.3773471,74.3107212",74.3107212,33.3773471,0.659722222,0.21875,13.41666667,27,640,47.7,SMTWTFS,Shalimar Express
Exp,NR,Delhi,Old Delhi,Sultanpur,"26.2647757,82.0727061","26.2647757,82.0727061",82.0727061,26.2647757,0.680555556,0.256944444,13.83333333,13,645,46.6,#NAME?,Sadbhavna Express
Exp,CR,Mumbai,Mumbai Dadar Central,Sawantwadi Road,"15.9303813,74.2650501","15.9303813,74.2650501",74.2650501,15.9303813,0.996527778,0.454861111,11,19,646,58.7,SMTWTFS,Dadar - Sawantwadi Road Rajya Rani Express
SF,SR,Chennai,Chennai Egmore,Tirunelveli Junction,"8.7368103,77.7137306","8.7368103,77.7137306",77.7137306,8.7368103,0.868055556,0.354166667,11.66666667,13,653,56,SMTWTFS,Nellai Express
Exp,ER,Kolkata,Kolkata Howrah Junction,Gaya Junction,"24.8042298,84.9996294","24.8042298,84.9996294",84.9996294,24.8042298,0.826388889,0.454861111,15.08333333,29,654,43.4,SMTWTFS,Howrah-Gaya Express
SF,SR,Chennai,Chennai Egmore,Tuticorin,"8.7641661,78.1348361","8.7641661,78.1348361",78.1348361,8.7641661,0.815972222,0.3125,11.91666667,20,656,55,SMTWTFS,Pearl City Express
Exp,NR,Delhi,Old Delhi,Partapgarh Junction,"25.9129855,82.0013882","25.9129855,82.0013882",82.0013882,25.9129855,0.826388889,0.347222222,12.5,11,660,52.8,SMTWTFS,Padmavat Express
SF,NFR,Kolkata,Kolkata Howrah Junction,Sambalpur Junction,"21.4662219,83.9751640","21.4662219,83.9751640",83.975164,21.4662219,0.871527778,0.340277778,11.25,8,661,58.8,#NAME?,Howrah- Sambalpur Express
Exp,SR,Chennai,Chennai Egmore,Rameswaram,"9.2876254,79.3129291","9.2876254,79.3129291",79.3129291,9.2876254,0.902777778,0.489583333,14.08333333,21,665,47.2,SMTWTFS,Chennai Egmore-Rameshwaram Express
SF,SR,Chennai,Chennai Egmore,Sengottai,"8.9764820,77.2493180","8.9764820,77.2493180",77.249318,8.976482,0.836805556,0.34375,12.16666667,16,670,55.1,SMTWTFS,Pothigai Express
SF,CR,Mumbai,Mumbai CST,Amravati,"20.9258333,77.7647222","20.9258333,77.7647222",77.7647222,20.9258333,0.836805556,0.34375,12.16666667,12,673,55.3,SMTWTFS,Mumbai CST-Amaravati SF Express
SF,NWR,Delhi,Delhi Sarai Rohilla,Udaipur City,"24.5712699,73.6915439","24.5712699,73.6915439",73.6915439,24.5712699,0.819444444,0.326388889,12.16666667,15,673,55.3,SMTWTFS,Chetak Express
Exp,ER,Kolkata,Kolkata Sealdah,Ballia,"25.3994444,86.3552778","25.3994444,86.3552778",86.3552778,25.3994444,0.559027778,0.256944444,16.75,27,679,40.5,SMTWTFS,Sealdah-Ballia Express
SKr,NR,Delhi,Delhi Sarai Rohilla,Bikaner Junction,"28.0145575,73.3159695","28.0145575,73.3159695",73.3159695,28.0145575,0.940972222,0.440972222,12,9,685,57.1,S--W-F-,Rajasthan Sampark Kranti Express Slip
Exp,ER,Kolkata,Kolkata Sealdah,New Cooch Behar,"26.3490445,89.4659462","26.3490445,89.4659462",89.4659462,26.3490445,0.815972222,0.392361111,13.83333333,18,693,50.1,SMTWTFS,Uttar Banga Express
Exp,ER,Kolkata,Kolkata Howrah Junction,Raxaul Junction,"26.9868646,84.8447217","26.9868646,84.8447217",84.8447217,26.9868646,0.65625,0.354166667,16.75,40,693,41.4,SMTWTFS,Mithila Express
SKr,NR,Delhi,Delhi Hazrat Nizamuddin,"Manikpur, Uttar Pradesh","25.0616300,81.0898130","25.0616300,81.0898130",81.089813,25.06163,0.84375,0.357638889,12.33333333,10,695,56.4,SMT-TFS,UP Sampark Kranti Express
SF,WCR,Delhi,Delhi Hazrat Nizamuddin,Bhopal HabibGanj,"23.6568100,77.3743550","23.6568100,77.3743550",77.374355,23.65681,0.875,0.295138889,10.08333333,8,700,69.4,SMTWTFS,Shaan E Bhopal SF Express
Shtb,NR,Delhi,New Delhi,Bhopal Junction,"22.6864393,77.2744471","22.6864393,77.2744471",77.2744471,22.6864393,0.260416667,0.586805556,7.833333333,5,701,89.5,SMTWTFS,New Delhi-Bhopal Shatabdi Express
Exp,SCR,Chennai,Chennai Egmore,Kakinada Port,"16.9473585,82.2625070","16.9473585,82.2625070",82.262507,16.9473585,0.722222222,0.402777778,16.33333333,31,702,43,SMTWTFS,Circar Express
SF,SR,Chennai,Chennai Central,Hyderabad Deccan Nampally,"17.3836400,78.4669640","17.3836400,78.4669640",78.466964,17.38364,0.697916667,0.239583333,13,20,715,55,SMTWTFS,Chennai - Hyderabad Express
Exp,ER,Kolkata,Kolkata Sealdah,New Alipurduar,"26.4920663,89.5265921","26.4920663,89.5265921",89.5265921,26.4920663,0.569444444,0.302083333,17.58333333,32,716,40.7,SMTWTFS,Testa Torsa Express
SF,SR,Chennai,Chennai Egmore,Nagercoil Junction,"8.1746848,77.4440221","8.1746848,77.4440221",77.4440221,8.1746848,0.784722222,0.340277778,13.33333333,9,727,54.5,----T--,Chennai Egmore Nagercoil (Weekly) Superfast Expres
Exp,ER,Kolkata,Kolkata Sealdah,Alipur Duar Junction,"26.5253080,89.5435500","26.5253080,89.5435500",89.54355,26.525308,0.854166667,0.506944444,15.66666667,23,735,46.9,SMTWTFS,Kanchan Kanya Express
SF,SR,Chennai,Chennai Egmore,Kanniyakumari,"8.0883064,77.5384507","8.0883064,77.5384507",77.5384507,8.0883064,0.729166667,0.284722222,13.33333333,15,742,55.7,SMTWTFS,Chennai Egmore Kanyakumari Superfast Express
SF,WR,Delhi,Delhi Hazrat Nizamuddin,Udaipur City,"24.5712699,73.6915439","24.5712699,73.6915439",73.6915439,24.5712699,0.795138889,0.305555556,12.25,13,743,60.7,SMTWTFS,Mewar Express
SF,SER,Kolkata,Kolkata Howrah Junction,Titlagarh,"20.2880490,83.1546080","20.2880490,83.1546080",83.154608,20.288049,0.288194444,0.847222222,13.41666667,27,745,55.5,SMTWTFS,Ispat Express
Exp,SR,Chennai,Chennai Central,Alappuzha,"9.4980667,76.3388484","9.4980667,76.3388484",76.3388484,9.4980667,0.885416667,0.447916667,13.5,22,746,55.3,SMTWTFS,Chennai- Alapuzha Alleppey Express
SF,NER,Delhi,New Delhi,Varanasi Junction,"25.3262612,82.9862058","25.3262612,82.9862058",82.9862058,25.3262612,0.78125,0.3125,12.75,3,758,59.5,SMTWTFS,Shiv Ganga Express
JShtb,KR,Mumbai,Mumbai CST,Madgaon Junction,"15.2719444,73.9583333","15.2719444,73.9583333",73.9583333,15.2719444,0.215277778,0.590277778,9,8,765,85,SMTWTFS,Mumbai Madgaon Jan Shatabdi Express
Exp,KR,Mumbai,Mumbai CST,Madgaon Junction,"15.2719444,73.9583333","15.2719444,73.9583333",73.9583333,15.2719444,0.961805556,0.447916667,11.66666667,18,765,65.6,SMTWTFS,Konkan Kanya Express
Exp,KR,Mumbai,Mumbai CST,Madgaon Junction,"15.2719444,73.9583333","15.2719444,73.9583333",73.9583333,15.2719444,0.288194444,0.78125,11.83333333,18,765,64.6,SMTWTFS,Mandovi Express
Exp,NR,Delhi,Old Delhi,Varanasi Junction,"25.3262612,82.9862058","25.3262612,82.9862058",82.9862058,25.3262612,0.8125,0.447916667,15.25,4,770,50.5,S-T-T--,Delhi Jn. -Varanasi Special
Exp,SCR,Chennai,Chennai Egmore,Hyderabad Kacheguda,"17.3892903,78.4965043","17.3892903,78.4965043",78.4965043,17.3892903,0.708333333,0.329861111,14.91666667,16,772,51.8,SMTWTFS,Chennai Egmore Kacheguda Express
Drnt,SCR,Mumbai,Mumbai Lokmanya Tilak Terminus,Secunderabad Junction,"17.4332580,78.5022280","17.4332580,78.5022280",78.502228,17.433258,0.961805556,0.461805556,12,0,773,64.4,#NAME?,Lokmanya Tilak (T)-Secunderabad AC Duronto Express
SF,WR,Mumbai,Mumbai Bandra Terminus,Bhavnagar Terminus,"21.7819741,72.1412430","21.7819741,72.1412430",72.141243,21.7819741,0.892361111,0.479166667,14.08333333,17,778,55.2,SMTWTFS,Bhavnagar Express
Exp,SR,Chennai,Chennai Egmore,Tiruchendur,"8.4955850,78.1191870","8.4955850,78.1191870",78.119187,8.495585,0.670138889,0.333333333,15.91666667,24,779,48.9,SMTWTFS,Chendhur Express
GR,NR,Delhi,Delhi Anand Vihar Terminus,Varanasi Junction,"25.3262612,82.9862058","25.3262612,82.9862058",82.9862058,25.3262612,0.756944444,0.336805556,13.91666667,7,781,56.1,-M-W-F-,Delhi Anand Vihar Terminus-Varanasi Garib Rath
SF,SCR,Chennai,Chennai Central,Hyderabad Deccan Nampally,"17.3836400,78.4669640","17.3836400,78.4669640",78.466964,17.38364,0.756944444,0.333333333,13.83333333,15,790,57.1,SMTWTFS,Charminar Express
SF,SCR,Mumbai,Mumbai CST,Hyderabad Deccan Nampally,"17.3836400,78.4669640","17.3836400,78.4669640",78.466964,17.38364,0.909722222,0.506944444,14.33333333,14,790,55.1,SMTWTFS,Hussain Sagar Express
Exp,SCR,Mumbai,Mumbai CST,Hyderabad Deccan Nampally,"17.3836400,78.4669640","17.3836400,78.4669640",78.466964,17.38364,0.53125,0.246527778,17.16666667,23,790,46,SMTWTFS,Mumbai CST-Hyderabad Express
Exp,NR,Delhi,New Delhi,Varanasi Junction,"25.3262612,82.9862058","25.3262612,82.9862058",82.9862058,25.3262612,0.486111111,0.197916667,17.08333333,32,794,46.5,SMTWTFS,Kashi Vishwanath Express
Exp,SR,Chennai,Chennai Egmore,Trivandrum Central,"8.5339492,76.9898676","8.5339492,76.9898676",76.9898676,8.5339492,0.802083333,0.461805556,15.83333333,25,798,50.4,SMTWTFS,Anantapuri Express
SF,NER,Delhi,Old Delhi,Azamgarh,"26.0737044,83.1859458","26.0737044,83.1859458",83.1859458,26.0737044,0.805555556,0.395833333,14.16666667,13,803,56.7,SMTWTFS,Kaifiat Express
Exp,WR,Mumbai,Mumbai Bandra Terminus,Jamnagar,"22.4707019,70.0577300","22.4707019,70.0577300",70.05773,22.4707019,0.732638889,0.395833333,15.91666667,28,812,51,SMTWTFS,Saurashtra Janata Express
SF,NR,Delhi,Delhi Hazrat Nizamuddin,Indore Junction BG,"22.7195687,75.8577258","22.7195687,75.8577258",75.8577258,22.7195687,0.927083333,0.496527778,13.66666667,17,817,59.8,SMTWTFS,Nizamuddin-Indore Express
SF,CR,Mumbai,Mumbai Lokmanya Tilak Terminus,Bhopal HabibGanj,"23.6568100,77.3743550","23.6568100,77.3743550",77.374355,23.65681,0.684027778,0.229166667,13.08333333,8,822,62.8,----T--,Lokmanya Tilak (T) Habibganj Express
Drnt,WR,Mumbai,Mumbai Central,Indore Junction BG,"22.7195687,75.8577258","22.7195687,75.8577258",75.8577258,22.7195687,0.96875,0.46875,12,0,829,69.1,#NAME?,Mumbai Central- Indore Duronto Express
SF,WR,Mumbai,Mumbai Central,Indore Junction BG,"22.7195687,75.8577258","22.7195687,75.8577258",75.8577258,22.7195687,0.795138889,0.375,13.91666667,17,829,59.6,SMTWTFS,Avantika Express
Exp,NWR,Delhi,Old Delhi,Barmer,"25.7500000,71.3833000","25.7500000,71.3833000",71.3833,25.75,0.729166667,0.40625,16.25,34,829,51,SMTWTFS,Delhi-Jaisalmer Express Slip
Exp,SWR,Chennai,Chennai Central,Hubli Junction,"15.3459580,75.1364693","15.3459580,75.1364693",75.1364693,15.345958,0.590277778,0.28125,16.58333333,15,834,50.3,S------,Chennai Hubli Express
Drnt,CR,Mumbai,Mumbai CST,Nagpur Junction,"20.7488587,78.6030242","20.7488587,78.6030242",78.6030242,20.7488587,0.84375,0.302083333,11,0,838,76.2,-M-W-F-,Mumbai CSTM-Nagpur Duronto Express
SF,CR,Mumbai,Mumbai CST,Nagpur Junction,"20.7488587,78.6030242","20.7488587,78.6030242",78.6030242,20.7488587,0.625,0.256944444,15.16666667,31,838,55.3,SMTWTFS,Sevagram Express
SF,CR,Mumbai,Mumbai CST,Nagpur Junction,"20.7488587,78.6030242","20.7488587,78.6030242",78.6030242,20.7488587,0.625,0.256944444,15.16666667,31,838,55.3,SMTWTFS,Sewagram Express Slip
Exp,WR,Mumbai,Mumbai Bandra Terminus,Bhuj,"23.2419997,69.6669324","23.2419997,69.6669324",69.6669324,23.2419997,0.715277778,0.395833333,16.33333333,20,839,51.4,SMTWTFS,Kutch Express
Exp,WR,Mumbai,Mumbai Bandra Terminus,Bhuj,"23.2419997,69.6669324","23.2419997,69.6669324",69.6669324,23.2419997,0.618055556,0.319444444,16.83333333,27,839,49.8,SMTWTFS,Sayaji Nagari Express
SF,SR,Chennai,Chennai Central,Kollam Junction,"8.8801611,76.6037312","8.8801611,76.6037312",76.6037312,8.8801611,0.864583333,0.479166667,14.75,15,857,58.1,-M-----,Chennai Central-Kollam SF Special
Exp,SR,Chennai,Chennai Central,Kollam Junction,"8.8801611,76.6037312","8.8801611,76.6037312",76.6037312,8.8801611,0.864583333,0.479166667,14.75,15,857,58.1,#NAME?,Chennai Central-Kollam Special
SF,SR,Chennai,Chennai Central,Kollam Junction,"8.8801611,76.6037312","8.8801611,76.6037312",76.6037312,8.8801611,0.635416667,0.239583333,14.5,15,858,59.2,-----F-,Chennai Central Kollam (Weekly) SF Special
SF,SR,Chennai,Chennai Central,Kollam Junction,"8.8801611,76.6037312","8.8801611,76.6037312",76.6037312,8.8801611,0.635416667,0.239583333,14.5,15,858,59.2,----T--,Chennai Central-Kollam SF Special
SF,SR,Chennai,Chennai Central,Kollam Junction,"8.8801611,76.6037312","8.8801611,76.6037312",76.6037312,8.8801611,0.635416667,0.28125,15.5,15,858,55.4,--T----,Chennai Central-Kollam SF Special
SF,SR,Chennai,Chennai Central,Kollam Junction,"8.8801611,76.6037312","8.8801611,76.6037312",76.6037312,8.8801611,0.979166667,0.645833333,16,15,858,53.6,---W---,Chennai CentralKollam SF Special
Exp,NER,Kolkata,Kolkata Chitpur,Gorakhpur Junction,"26.5052677,83.7784115","26.5052677,83.7784115",83.7784115,26.5052677,0.604166667,0.329861111,17.41666667,17,859,49.3,#NAME?,Purvanchal Express
SF,NR,Delhi,New Delhi,Rewa,"24.5313889,81.3011111","24.5313889,81.3011111",81.3011111,24.5313889,0.996527778,0.59375,14.33333333,10,860,60,SMTWTFS,NewDelhi-Rewa Express
Exp,ER,Kolkata,Kolkata Sealdah,Varanasi Junction,"25.3262612,82.9862058","25.3262612,82.9862058",82.9862058,25.3262612,0.885416667,0.902777778,24.41666667,76,871,35.7,SMTWTFS,Sealdah-Varanasi Express
GR,NR,Delhi,Delhi Anand Vihar Terminus,Sasaram,"24.9500000,84.0333000","24.9500000,84.0333000",84.0333,24.95,0.802083333,0.34375,13,5,874,67.2,#NAME?,Anand ViharT Delhi-Sasaram GaribRath Express
Exp,NER,Kolkata,Kolkata Chitpur,Gorakhpur Junction,"26.5052677,83.7784115","26.5052677,83.7784115",83.7784115,26.5052677,0.604166667,0.340277778,17.66666667,20,875,49.5,-----F-,Poorvanchal Express
SF,SER,Kolkata,Kolkata Shalimar,Visakhapatnam Junction,"17.7368076,83.3073078","17.7368076,83.3073078",83.3073078,17.7368076,0.760416667,0.347222222,14.08333333,14,880,62.5,--T----,Kolkata Shalimar-Visakhapatnam Superfast express
Exp,SCR,Mumbai,Mumbai CST,Secunderabad Junction,"17.4332580,78.5022280","17.4332580,78.5022280",78.502228,17.433258,0.878472222,0.59375,17.16666667,28,881,51.3,SMTWTFS,Mumbai-Secunderabad Devagiri Expres
SF,ER,Kolkata,Kolkata Howrah Junction,Allahabad City,"25.4358011,81.8463110","25.4358011,81.8463110",81.846311,25.4358011,0.833333333,0.510416667,16.25,24,882,54.3,SMTWTFS,Vibhuti Express
Exp,NER,Kolkata,Kolkata Chitpur,Gorakhpur Junction,"26.5052677,83.7784115","26.5052677,83.7784115",83.7784115,26.5052677,0.604166667,0.402777778,19.16666667,25,883,46.1,S--W---,Poorvanchal Express
SF,SR,Chennai,Chennai Central,Mangalore Central,"12.8809875,74.8352693","12.8809875,74.8352693",74.8352693,12.8809875,0.850694444,0.517361111,16,29,889,55.6,SMTWTFS,Chennai Mangalore Mail
SF,SR,Chennai,Chennai Central,Mangalore Central,"12.8809875,74.8352693","12.8809875,74.8352693",74.8352693,12.8809875,0.708333333,0.378472222,16.08333333,16,889,55.3,SM-WTFS,Chennai - Mangalore Express
Exp,SR,Chennai,Chennai Central,Mangalore Central,"12.8809875,74.8352693","12.8809875,74.8352693",74.8352693,12.8809875,0.479166667,0.190972222,17.08333333,29,902,52.8,SMTWTFS,West Coast Express
SKr,WCR,Delhi,Delhi Hazrat Nizamuddin,Jabalpur Junction,"23.1648052,79.9503974","23.1648052,79.9503974",79.9503974,23.1648052,0.725694444,0.333333333,14.58333333,5,909,62.3,#NAME?,Madhya Pradesh Sampark Kranti Express
SF,SR,Chennai,Chennai Central,Trivandrum Central,"8.5339492,76.9898676","8.5339492,76.9898676",76.9898676,8.5339492,0.635416667,0.274305556,15.33333333,10,909,59.3,S------,Chennai-Thiruvananthapuram Express
SF,SR,Chennai,Chennai Central,Trivandrum Central,"8.5339492,76.9898676","8.5339492,76.9898676",76.9898676,8.5339492,0.822916667,0.475694444,15.66666667,18,909,58,SMTWTFS,Chennai Tiruvananthapuram SF Mail
SF,NR,Delhi,Delhi Hazrat Nizamuddin,Jabalpur Junction,"23.1648052,79.9503974","23.1648052,79.9503974",79.9503974,23.1648052,0.642361111,0.302083333,15.83333333,12,909,57.4,SMTWTFS,Gondwana Express
Exp,NR,Delhi,Old Delhi,Jaisalmer,"26.9157487,70.9083443","26.9157487,70.9083443",70.9083443,26.9157487,0.729166667,0.458333333,17.5,36,921,52.6,SMTWTFS,Delhi-Jaisalmer Express
SF,SR,Chennai,Chennai Central,Trivandrum Central,"8.5339492,76.9898676","8.5339492,76.9898676",76.9898676,8.5339492,0.642361111,0.319444444,16.25,19,922,56.7,SMTWTFS,Chennai-Trivandrum SuperFast Express
Mail,WR,Mumbai,Mumbai Central,Veraval,"20.9120030,70.3533760","20.9120030,70.3533760",70.353376,20.912003,0.850694444,0.65625,19.33333333,29,923,47.7,S-TWTFS,Saurashtra Mail
SF,SR,Chennai,Chennai Central,Nagercoil Junction,"8.1746848,77.4440221","8.1746848,77.4440221",77.4440221,8.1746848,0.760416667,0.461805556,16.83333333,17,927,55.1,-----F-,Chennai Central Nagercoil Weekly Superfast Express
SF,WR,Delhi,Old Delhi,Ahmedabad Junction,"23.0300000,72.5800000","23.0300000,72.5800000",72.58,23.03,0.638888889,0.319444444,16.33333333,17,933,57.1,SMTWTFS,Ashram SF Express
Raj,WR,Delhi,New Delhi,Ahmedabad Junction,"23.0300000,72.5800000","23.0300000,72.5800000",72.58,23.03,0.829861111,0.399305556,13.66666667,6,934,68.3,SMTWTFS,New Delhi-Ahmedabad Swarna Jayanti Rajdhani Expres
SF,NWR,Mumbai,Mumbai Bandra Terminus,Jodhpur Junction,"26.4902597,72.6718944","26.4902597,72.6718944",72.6718944,26.4902597,0.5625,0.270833333,17,14,935,55,SMTWTFS,Suryanagari Express
Exp,WR,Mumbai,Mumbai Bandra Terminus,Jodhpur Junction,"26.4902597,72.6718944","26.4902597,72.6718944",72.6718944,26.4902597,0.975694444,0.708333333,17.58333333,8,935,53.2,-----F-,Bandra Jodhpur Express
SF,WR,Mumbai,Mumbai Bandra Terminus,Udaipur City,"24.5712699,73.6915439","24.5712699,73.6915439",73.6915439,24.5712699,0.65625,0.371527778,17.16666667,12,945,55,S--W-F-,Bandra-Udaipur SF Express
Exp,WR,Mumbai,Mumbai Central,Porbandar,"21.6417069,69.6292654","21.6417069,69.6292654",69.6292654,21.6417069,0.347222222,0.243055556,21.5,60,955,44.4,SMTWTFS,Saurashtra Express
SF,CR,Delhi,Delhi Hazrat Nizamuddin,Jabalpur Junction,"23.1648052,79.9503974","23.1648052,79.9503974",79.9503974,23.1648052,0.673611111,0.399305556,17.41666667,27,961,55.2,SMTWTFS,Mahakoshal Express
Exp,NER,Delhi,Old Delhi,Raxaul Junction,"26.9868646,84.8447217","26.9868646,84.8447217",84.8447217,26.9868646,0.71875,0.701388889,23.58333333,44,964,40.9,SMTWTFS,Satyagraha Express
SF,CR,Mumbai,Mumbai CST,Gondia Junction,"21.4618542,80.1920398","21.4618542,80.1920398",80.1920398,21.4618542,0.798611111,0.465277778,16,22,968,60.5,SMTWTFS,Vidarbha Express
SF,ECR,Delhi,Old Delhi,Gaya Junction,"24.8042298,84.9996294","24.8042298,84.9996294",84.9996294,24.8042298,0.798611111,0.40625,14.58333333,5,972,66.7,-----F-,Delhi Gaya S
Exp,NFR,Kolkata,Kolkata Sealdah,Guwahati,"26.1471290,91.7355511","26.1471290,91.7355511",91.7355511,26.147129,0.274305556,0.1875,21.91666667,30,975,44.5,SMTWTFS,Kanchenjunga Express
SF,NWR,Mumbai,Mumbai Dadar Western,Ajmer Junction,"26.7987444,75.0244674","26.7987444,75.0244674",75.0244674,26.7987444,0.607638889,0.336805556,17.5,20,976,55.8,#NAME?,Dadar Ajmer Superfast Express
SF,WR,Mumbai,Mumbai Dadar Western,Bhuj,"23.2419997,69.6669324","23.2419997,69.6669324",69.6669324,23.2419997,0.996527778,0.736111111,17.75,15,977,55,--T--F-,Dadar-Bhuj Bi-Weekly SF Express
Exp,WR,Mumbai,Mumbai Bandra Terminus,Okha,"22.4574800,69.0640550","22.4574800,69.0640550",69.064055,22.45748,0.996527778,0.84375,20.33333333,12,980,48.2,---W---,Bandra Terminus Okha Weekly Special
Exp,SR,Chennai,Chennai Egmore,Mangalore Central,"12.8809875,74.8352693","12.8809875,74.8352693",74.8352693,12.8809875,0.927083333,0.916666667,23.75,50,983,41.4,SMTWTFS,Chennai Egmore-Mangalore Express
SF,ER,Delhi,Delhi Anand Vihar Terminus,Rajendra Nagar Bihar,"25.6053291,85.1647866","25.6053291,85.1647866",85.1647866,25.6053291,0.638888889,0.333333333,16.66666667,3,987,59.2,SMTWTFS,Anand Vihar(T) Rajendra Nagar Jan Sadharan Express
SF,ER,Delhi,New Delhi,Gaya Junction,"24.8042298,84.9996294","24.8042298,84.9996294",84.9996294,24.8042298,0.590277778,0.243055556,15.66666667,13,990,63.2,SMTWTFS,Mahabodhi Express
Mail,WR,Mumbai,Mumbai Central,Okha,"22.4574800,69.0640550","22.4574800,69.0640550",69.064055,22.45748,0.850694444,0.666666667,19.58333333,28,990,50.6,SMTWTFS,Saurashtra Mail
GR,WCR,Mumbai,Mumbai CST,Jabalpur Junction,"23.1648052,79.9503974","23.1648052,79.9503974",79.9503974,23.1648052,0.5625,0.25,16.5,12,997,60.4,#NAME?,Mumbai-Jabalpur Garib Rath Express
Raj,ECR,Delhi,New Delhi,Rajendra Nagar Bihar,"25.6053291,85.1647866","25.6053291,85.1647866",85.1647866,25.6053291,0.715277778,0.25,12.83333333,4,1001,78,SMTWTFS,New Delhi Rajendra Nagar Rajdhani Express
SF,ER,Delhi,New Delhi,Rajendra Nagar Bihar,"25.6053291,85.1647866","25.6053291,85.1647866",85.1647866,25.6053291,0.729166667,0.315972222,14.08333333,1,1001,71.1,SMTWTFS,Sampoorna Kranti Express
SF,WR,Mumbai,Mumbai Bandra Terminus,Ajmer Junction,"26.7987444,75.0244674","26.7987444,75.0244674",75.0244674,26.7987444,0.65625,0.40625,18,11,1017,56.5,S--W-F-,Bandra-Udaipur SF Express Slip
SF,ER,Kolkata,Kolkata Howrah Junction,Guwahati,"26.1471290,91.7355511","26.1471290,91.7355511",91.7355511,26.147129,0.659722222,0.395833333,17.66666667,9,1020,57.7,SMTWTFS,Saraighat Express
GR,NER,Kolkata,Kolkata Chitpur,Guwahati,"26.1471290,91.7355511","26.1471290,91.7355511",91.7355511,26.147129,0.902777778,0.652777778,18,11,1027,57.1,S---T--,Kolkata Guwahati Garib Rath
SF,WCR,Delhi,New Delhi,Jabalpur Junction,"23.1648052,79.9503974","23.1648052,79.9503974",79.9503974,23.1648052,0.586805556,0.302083333,17.16666667,17,1038,60.5,SMTWTFS,Shridham Express
Exp,NER,Kolkata,Kolkata Shalimar,Gorakhpur Junction,"26.5052677,83.7784115","26.5052677,83.7784115",83.7784115,26.5052677,0.850694444,0.680555556,19.91666667,11,1050,52.7,--T----,Kolkata Shalimar-Gorakhpur Bhojpuri Express
Exp,NR,Delhi,Delhi Sarai Rohilla,Chhindwara Junction,"22.0579488,78.9528086","22.0579488,78.9528086",78.9528086,22.0579488,0.513888889,0.409722222,21.5,17,1050,48.8,-M-W---,Patalkot Express
Exp,NR,Delhi,Delhi Sarai Rohilla,Chhindwara Junction,"22.0579488,78.9528086","22.0579488,78.9528086",78.9528086,22.0579488,0.513888889,0.409722222,21.5,16,1050,48.8,S---T--,Delhi SR Chhindwara Kanhan Valley Express
Exp,SER,Kolkata,Kolkata Howrah Junction,Koraput,"18.8134870,82.7123327","18.8134870,82.7123327",82.7123327,18.813487,0.899305556,0.850694444,22.83333333,43,1057,46.3,SMTWTFS,Samaleshwari Express
SF,ECR,Delhi,Delhi Anand Vihar Terminus,Muzaffarpur Junction,"26.1222744,85.3778841","26.1222744,85.3778841",85.3778841,26.1222744,0.618055556,0.434027778,19.58333333,12,1060,54.1,SMTWTFS,Sapt Kranti SF Express
GR,NR,Delhi,Delhi Anand Vihar Terminus,Muzaffarpur Junction,"26.1222744,85.3778841","26.1222744,85.3778841",85.3778841,26.1222744,0.881944444,0.746527778,20.75,10,1060,51.1,---W---,Anand Vihar T.- Muzaffarpur Garib Rath
SF,NR,Delhi,New Delhi,Islampur,"26.2608890,88.1879310","26.2608890,88.1879310",88.187931,26.260889,0.840277778,0.579861111,17.75,25,1063,59.9,SMTWTFS,Magadh Express
Exp,SWR,Chennai,Chennai Central,Vasco Da Gama,"15.3860329,73.8440398","15.3860329,73.8440398",73.8440398,15.3860329,0.590277778,0.541666667,22.83333333,21,1070,46.9,-----F-,Chennai Vasco Express
SKr,WR,Delhi,Delhi Hazrat Nizamuddin,Ahmedabad Junction,"23.0300000,72.5800000","23.0300000,72.5800000",72.58,23.03,0.586805556,0.274305556,16.5,8,1085,65.8,#NAME?,Gujarat Sampark Kranti Express
Exp,SR,Chennai,Chennai Egmore,Guruvayur,"10.5949449,76.0383760","10.5949449,76.0383760",76.038376,10.5949449,0.319444444,0.277777778,23,44,1100,47.8,SMTWTFS,Chennai Egmore-Guruvayoor Express
SF,ECR,Delhi,New Delhi,Rajgir,"25.0300000,85.4200000","25.0300000,85.4200000",85.42,25.03,0.552083333,0.423611111,20.91666667,30,1103,52.7,SMTWTFS,Shramjeevi Express
Exp,NWR,Mumbai,Mumbai Bandra Terminus,Jaipur Junction,"26.9209850,75.7854754","26.9209850,75.7854754",75.7854754,26.920985,0.875,0.78125,21.75,36,1106,50.9,SMTWTFS,Aravalli Express
Exp,NR,Delhi,Old Delhi,Muzaffarpur Junction,"26.1222744,85.3778841","26.1222744,85.3778841",85.3778841,26.1222744,0.680555556,0.75,25.66666667,27,1106,43.1,--T-T--,Old Delhi-Muzaffarpur Sadbhavana Express
Exp,CR,Mumbai,Mumbai CST,Nagpur Junction,"20.7488587,78.6030242","20.7488587,78.6030242",78.6030242,20.7488587,0.690972222,0.677083333,23.66666667,30,1139,48.1,SMTWTFS,Nandigram Express
Exp,NR,Delhi,Old Delhi,Muzaffarpur Junction,"26.1222744,85.3778841","26.1222744,85.3778841",85.3778841,26.1222744,0.680555556,0.75,25.66666667,30,1147,44.7,---W---,Sadbhavana Expres
SF,WR,Mumbai,Mumbai Bandra Terminus,Jaipur Junction,"26.9209850,75.7854754","26.9209850,75.7854754",75.7854754,26.920985,0.65625,0.4375,18.75,15,1148,61.2,#NAME?,Mumbai Bandra (T.) - Jaipur (Tri-weekly) SF Exp
Exp,WCR,Kolkata,Kolkata Howrah Junction,Jabalpur Junction,"23.1648052,79.9503974","23.1648052,79.9503974",79.9503974,23.1648052,0.604166667,0.65625,25.25,40,1152,45.6,SMTWTFS,Shaktipunj Express
Exp,SWR,Mumbai,Mumbai CST,Bangalore City Junction,"12.9777803,77.5685757","12.9777803,77.5685757",77.5685757,12.9777803,0.336805556,0.368055556,24.75,32,1153,46.6,SMTWTFS,Udyan Express
Drnt,WR,Mumbai,Mumbai Central,Jaipur Junction,"26.9209850,75.7854754","26.9209850,75.7854754",75.7854754,26.920985,0.96875,0.579861111,14.66666667,0,1159,79,S-T----,Mumbai Central Jaipur AC Duronto Express
SF,WR,Mumbai,Mumbai Central,Jaipur Junction,"26.9209850,75.7854754","26.9209850,75.7854754",75.7854754,26.920985,0.784722222,0.534722222,18,17,1159,64.4,SMTWTFS,Mumbai-Jaipur SF Express
SF,ECR,Delhi,New Delhi,Darbhanga Junction,"26.1573879,85.9071330","26.1573879,85.9071330",85.907133,26.1573879,0.861111111,0.753472222,21.41666667,15,1166,54.4,SMTWTFS,Swatantrata Sainani Express
SKr,ECR,Delhi,New Delhi,Darbhanga Junction,"26.1573879,85.9071330","26.1573879,85.9071330",85.907133,26.1573879,0.604166667,0.475694444,20.91666667,9,1172,56,SMTWTFS,Bihar Sampark Kranti Express
SF,SR,Mumbai,Mumbai Lokmanya Tilak Terminus,Mangalore Central,"12.8809875,74.8352693","12.8809875,74.8352693",74.8352693,12.8809875,0.638888889,0.3125,16.16666667,22,1185,73.3,SMTWTFS,Matsyagandha Express
SF,ECR,Delhi,New Delhi,Barauni Junction,"25.5936972,85.6886494","25.5936972,85.6886494",85.6886494,25.5936972,0.826388889,0.71875,21.41666667,19,1185,55.3,SMTWTFS,Vaishali SF Express
SF,CR,Mumbai,Mumbai CST,Mangalore Junction,"12.8668681,74.8815595","12.8668681,74.8815595",74.8815595,12.8668681,0.927083333,0.517361111,14.16666667,10,1195,84.4,SMTWTFS,Mumbai CST - Mangalore Jn. SF Express
Exp,CR,Mumbai,Mumbai Dadar Central,Bangalore Yesvantpur Junction,"13.0232118,77.5513735","13.0232118,77.5513735",77.5513735,13.0232118,0.895833333,0.913194444,24.41666667,25,1205,49.4,SM-WTFS,Chalukya Express
SF,ER,Delhi,Delhi Anand Vihar Terminus,Bhagalpur,"25.2400300,86.9845120","25.2400300,86.9845120",86.984512,25.24003,0.611111111,0.517361111,21.75,17,1206,55.4,SMTWTFS,Vikramshila Express
GR,NR,Delhi,Delhi Anand Vihar Terminus,Bhagalpur,"25.2400300,86.9845120","25.2400300,86.9845120",86.984512,25.24003,0.708333333,0.479166667,18.5,15,1207,65.2,-M-W-F-,AnandVihar Terminal-Bhagalpur Garib Rath
SF,NWR,Mumbai,Mumbai Bandra Terminus,Bikaner Junction,"28.0145575,73.3159695","28.0145575,73.3159695",73.3159695,28.0145575,0.607638889,0.520833333,21.91666667,26,1212,55.3,--T----,Mumbai BandraT-Bikaner SF Special
Exp,CR,Mumbai,Mumbai Dadar Central,Mysore Junction,"12.9016746,77.4684458","12.9016746,77.4684458",77.4684458,12.9016746,0.895833333,0.90625,24.25,25,1212,50,--T----,Dadar-Mysore Sharavati Express
Exp,NWR,Mumbai,Mumbai Bandra Terminus,Bikaner Junction,"28.0145575,73.3159695","28.0145575,73.3159695",73.3159695,28.0145575,0.625,0.649305556,24.58333333,31,1212,49.3,SMTWTFS,Ranakpur Express
Exp,CR,Mumbai,Mumbai Lokmanya Tilak Terminus,Gwalior Junction,"26.2159557,78.1819150","26.2159557,78.1819150",78.181915,26.2159557,0.659722222,0.649305556,23.75,14,1216,51.2,---W---,Mumbai LTT - Gwalior (Weekly) Special
SF,ER,Delhi,New Delhi,Bhagalpur,"25.2400300,86.9845120","25.2400300,86.9845120",86.984512,25.24003,0.989583333,0.833333333,20.25,7,1220,60.2,--T----,NewDelhi-Bhagalpur Weekly SF Express
SF,ECoR,Chennai,Chennai Central,Bhubaneswar,"20.2960587,85.8245398","20.2960587,85.8245398",85.8245398,20.2960587,0.881944444,0.732638889,20.41666667,19,1223,59.9,-----F-,Chennai Bhubaneswar SF Express
Exp,NR,Delhi,Old Delhi,Raxaul Junction,"26.9868646,84.8447217","26.9868646,84.8447217",84.8447217,26.9868646,0.680555556,0.895833333,29.16666667,33,1236,42.4,S----F-,Sadbhavana Express
SF,NWR,Mumbai,Mumbai Dadar Western,Bikaner Junction,"28.0145575,73.3159695","28.0145575,73.3159695",73.3159695,28.0145575,0.607638889,0.548611111,22.58333333,12,1245,55.1,S--W---,Dadar - Bikaner Express
GR,ECR,Delhi,Delhi Anand Vihar Terminus,"Jaynagar, Bihar","26.5852483,86.1293792","26.5852483,86.1293792",86.1293792,26.5852483,0.708333333,0.5625,20.5,18,1252,61.1,#NAME?,Anand Vihar Terminus-Jaynagar Garib Rath Express
SF,CR,Chennai,Chennai Egmore,Mumbai Dadar Central,"19.0197385,72.8515468","19.0197385,72.8515468",72.8515468,19.0197385,0.284722222,0.25,23.16666667,19,1279,55.2,SMTWTFS,Chennai Dadar SF Express
SF,CR,Mumbai,Mumbai Dadar Central,Chennai Egmore,"13.0730933,80.2572225","13.0730933,80.2572225",80.2572225,13.0730933,0.854166667,0.822916667,23.25,21,1279,55,SMTWTFS,Dadar Chennai Egmore SF Express
Exp,CR,Chennai,Chennai Central,Mumbai CST,"18.9439272,72.8360390","18.9439272,72.8360390",72.836039,18.9439272,0.496527778,0.572916667,25.83333333,32,1283,49.7,SMTWTFS,ChennaiCentral-CST Mumbai Express
Exp,CR,Mumbai,Mumbai CST,Chennai Central,"13.0836340,80.2742100","13.0836340,80.2742100",80.27421,13.083634,0.583333333,0.697916667,26.75,34,1283,48,SMTWTFS,Mumbai - Chennai Express
Mail,CR,Chennai,Chennai Central,Mumbai CST,"18.9439272,72.8360390","18.9439272,72.8360390",72.836039,18.9439272,0.951388889,0.15625,28.91666667,50,1283,44.4,SMTWTFS,Chennai-Mumbai CST Mail
Mail,CR,Mumbai,Mumbai CST,Chennai Central,"13.0836340,80.2742100","13.0836340,80.2742100",80.27421,13.083634,0.989583333,0.204861111,29.16666667,50,1283,44,SMTWTFS,Mumbai CST-Chennai Mail
SKr,SER,Delhi,Delhi Hazrat Nizamuddin,Durg Junction,"21.1893670,81.2830390","21.1893670,81.2830390",81.283039,21.189367,0.725694444,0.631944444,21.75,9,1284,59,S-T--F-,Chhattisgarh Sampark Kranti Express
Exp,NR,Delhi,Delhi Anand Vihar Terminus,Sitamarhi,"26.5980700,85.4953230","26.5980700,85.4953230",85.495323,26.59807,0.65625,0.927083333,30.5,38,1285,42.1,SMTWTFS,Lichhavi Express
SF,SER,Delhi,Delhi Anand Vihar Terminus,"Hatia, Jharkhand","22.7492100,85.9169350","22.7492100,85.9169350",85.916935,22.74921,0.826388889,0.694444444,20.83333333,16,1303,62.5,#NAME?,Jharkhand Swarna Jayanti Express
SF,CR,Kolkata,Kolkata Howrah Junction,Gwalior Junction,"26.2159557,78.1819150","26.2159557,78.1819150",78.181915,26.2159557,0.739583333,0.722222222,23.58333333,30,1303,55.3,S-TW---,Chambal Express
Raj,NR,Delhi,New Delhi,Ranchi Junction,"22.9655604,85.9987331","22.9655604,85.9987331",85.9987331,22.9655604,0.673611111,0.381944444,17,6,1306,76.8,--T--F-,New Delhi-Ranchi Rajdhani Express
SKr,SER,Delhi,New Delhi,Ranchi Junction,"22.9655604,85.9987331","22.9655604,85.9987331",85.9987331,22.9655604,0.298611111,0.204861111,21.75,7,1309,60.2,#NAME?,Jharkhand Sampark Kranti Express
Exp,CR,Kolkata,Kolkata Chitpur,Jhansi Junction,"25.0457256,78.8049305","25.0457256,78.8049305",78.8049305,25.0457256,0.309027778,0.368055556,25.41666667,16,1326,52.2,S------,Pratham Swatantrata Sangram Express
SF,CR,Mumbai,Mumbai Lokmanya Tilak Terminus,Agra Cantt.,"27.1553965,78.0108205","27.1553965,78.0108205",78.0108205,27.1553965,0.684027778,0.538194444,20.5,19,1334,65.1,-----F-,Lashkar Superfast Express
SF,SER,Delhi,Delhi Anand Vihar Terminus,"Hatia, Jharkhand","22.7492100,85.9169350","22.7492100,85.9169350",85.916935,22.74921,0.826388889,0.829861111,24.08333333,18,1334,55.4,--TW-F-,Jharkhand Swarna Jayanti Express
Raj,NR,Delhi,New Delhi,Ranchi Junction,"22.9655604,85.9987331","22.9655604,85.9987331",85.9987331,22.9655604,0.673611111,0.444444444,18.5,4,1341,72.5,----T--,New Delhi-Ranchi Rajdhani Express
GR,SER,Delhi,New Delhi,Ranchi Junction,"22.9655604,85.9987331","22.9655604,85.9987331",85.9987331,22.9655604,0.673611111,0.444444444,18.5,10,1344,72.6,#NAME?,New Delhi-Ranchi Garib Rath
Exp,NR,Delhi,Delhi Hazrat Nizamuddin,Sainagar Shirdi,"19.7769008,74.5053095","19.7769008,74.5053095",74.5053095,19.7769008,0.013888889,0.927083333,21.91666667,11,1360,62.1,-----F-,H. Nizamuddin - Sainagar Shirdi (Weekly) Special
GR,WR,Delhi,Delhi Hazrat Nizamuddin,Mumbai Bandra Terminus,"19.0623704,72.8410241","19.0623704,72.8410241",72.8410241,19.0623704,0.652777778,0.340277778,16.5,7,1366,82.8,S--W-F-,H.Nizamuddin-Bandra Terminus Garib Rath Express
GR,WR,Mumbai,Mumbai Bandra Terminus,Delhi Hazrat Nizamuddin,"28.5893050,77.2462570","28.5893050,77.2462570",77.246257,28.589305,0.704861111,0.40625,16.83333333,7,1366,81.1,#NAME?,Bandra Terminus- Hazrat Nizamuddin Garib Rath
SKr,WR,Delhi,Delhi Hazrat Nizamuddin,Mumbai Bandra Terminus,"19.0623704,72.8410241","19.0623704,72.8410241",72.8410241,19.0623704,0.899305556,0.743055556,20.25,3,1366,67.5,-M--T--,Maharashtra Sampark Kranti Express
SKr,WR,Mumbai,Mumbai Bandra Terminus,Delhi Hazrat Nizamuddin,"28.5893050,77.2462570","28.5893050,77.2462570",77.246257,28.589305,0.701388889,0.572916667,20.91666667,3,1366,65.3,S--W---,Maharashtra Sampark Kranti Express
Raj,WR,Mumbai,Mumbai Central,Delhi Hazrat Nizamuddin,"28.5893050,77.2462570","28.5893050,77.2462570",77.246257,28.589305,0.736111111,0.454861111,17.25,12,1377,79.8,SMTWTFS,MumbaiCentral-H Nizamuddin August Kranti Rajdhani Express
Raj,WR,Delhi,Delhi Hazrat Nizamuddin,Mumbai Central,"18.9756984,72.8227449","18.9756984,72.8227449",72.8227449,18.9756984,0.704861111,0.440972222,17.66666667,11,1377,77.9,SMTWTFS,August Kranti Rajdhani Express
SF,NR,Delhi,Delhi Anand Vihar Terminus,Jogbani,"26.3962182,87.2593454","26.3962182,87.2593454",87.2593454,26.3962182,0.319444444,0.336805556,24.41666667,13,1383,56.6,SMTWTFS,Seemanchal Express
Raj,WR,Mumbai,Mumbai Central,New Delhi,"28.6353080,77.2249600","28.6353080,77.2249600",77.22496,28.635308,0.694444444,0.354166667,15.83333333,4,1384,87.4,SMTWTFS,Mumbai Central-New Delhi Rajdhani Express
Raj,WR,Delhi,New Delhi,Mumbai Central,"18.9756984,72.8227449","18.9756984,72.8227449",72.8227449,18.9756984,0.6875,0.357638889,16.08333333,4,1384,86.1,SMTWTFS,Mumbai Rajdhani Express
Exp,NR,Delhi,New Delhi,New Farakka Junction,"24.7949213,87.9156295","24.7949213,87.9156295",87.9156295,24.7949213,0.739583333,0.958333333,29.25,18,1387,47.4,S---T--,New Delhi-New Farakka Express
SF,SR,Chennai,Chennai Central,Sainagar Shirdi,"19.7769008,74.5053095","19.7769008,74.5053095",74.5053095,19.7769008,0.423611111,0.479166667,25.33333333,20,1392,54.9,---W---,Chennai-Sainagar Shirdi SF Express
Exp,WR,Delhi,Delhi Sarai Rohilla,Porbandar,"21.6417069,69.6292654","21.6417069,69.6292654",69.6292654,21.6417069,0.347222222,0.538194444,28.58333333,29,1392,48.7,-M--T--,Delhi SaraiRohilla-Porbandar Express
SF,ER,Kolkata,Kolkata Chitpur,Agra Cantt.,"27.1553965,78.0108205","27.1553965,78.0108205",78.0108205,27.1553965,0.548611111,0.5,22.83333333,9,1405,61.5,---W---,Kolkata-Agra Cantt Superfast Exp
SF,CR,Mumbai,Mumbai Lokmanya Tilak Terminus,Lucknow Junction,"26.5184622,80.4384274","26.5184622,80.4384274",80.4384274,26.5184622,0.684027778,0.631944444,22.75,8,1410,62,#NAME?,Mumbai LTT Lucknow Superfast Express
SF,SER,Chennai,Chennai Central,Bilaspur Junction,"22.0571979,82.1676240","22.0571979,82.1676240",82.167624,22.0571979,0.881944444,0.84375,23.08333333,13,1413,61.2,-M-----,Chennai-Bilaspur Express
Exp,ER,Delhi,Old Delhi,Malda Town,"25.0108408,88.1410967","25.0108408,88.1410967",88.1410967,25.0108408,0.909722222,0.305555556,33.5,55,1416,42.3,#NAME?,Farakka Express
SF,NER,Mumbai,Mumbai CST,Lucknow Junction,"26.5184622,80.4384274","26.5184622,80.4384274",80.4384274,26.5184622,0.347222222,0.361111111,24.33333333,13,1426,58.6,SMTWTFS,Pushpak Express
GR,NR,Delhi,Delhi Sarai Rohilla,Mumbai Bandra Terminus,"19.0623704,72.8410241","19.0623704,72.8410241",72.8410241,19.0623704,0.388888889,0.340277778,22.83333333,15,1431,62.7,#NAME?,Delhi Sarai Rohilla-Mumbai BandraT Garib Rath
GR,NR,Mumbai,Mumbai Bandra Terminus,Delhi Sarai Rohilla,"28.6652048,77.1902122","28.6652048,77.1902122",77.1902122,28.6652048,0.538194444,0.513888889,23.41666667,15,1431,61.1,S-TW-F-,Mumbai Bandra T. - Delhi Sarai Rohilla Garib Rath
Drnt,ER,Delhi,New Delhi,Kolkata Howrah Junction,"22.5726460,88.3638950","22.5726460,88.3638950",88.363895,22.572646,0.541666667,0.25,17,0,1441,84.8,#NAME?,New Delhi-Howrah Duronto Express
Drnt,ER,Kolkata,Kolkata Howrah Junction,New Delhi,"28.6353080,77.2249600","28.6353080,77.2249600",77.22496,28.635308,0.541666667,0.253472222,17.08333333,0,1446,84.6,-M---F-,Howrah-New Delhi Duronto Express
SF,ER,Kolkata,Kolkata Howrah Junction,New Delhi,"28.6353080,77.2249600","28.6353080,77.2249600",77.22496,28.635308,0.347222222,0.305555556,23,18,1446,62.9,S--WT--,Poorva Express
SF,ER,Delhi,New Delhi,Kolkata Howrah Junction,"22.5726460,88.3638950","22.5726460,88.3638950",88.363895,22.572646,0.680555556,0.697916667,24.41666667,17,1446,59.2,-MT--F-,Poorva Express
Raj,ER,Delhi,New Delhi,Kolkata Howrah Junction,"22.5726460,88.3638950","22.5726460,88.3638950",88.363895,22.572646,0.708333333,0.413194444,16.91666667,6,1447,85.5,SMTWT-S,New Delhi-Howrah Rajdhani Express
Raj,ER,Kolkata,Kolkata Howrah Junction,New Delhi,"28.6353080,77.2249600","28.6353080,77.2249600",77.22496,28.635308,0.704861111,0.413194444,17,6,1447,85.1,#NAME?,Howrah-New Delhi Rajdhani Express
SF,ER,Kolkata,Kolkata Howrah Junction,New Delhi,"28.6353080,77.2249600","28.6353080,77.2249600",77.22496,28.635308,0.78125,0.708333333,22.25,7,1447,65,--T--F-,Howrah-NewDelhi SF Express
SF,ER,Delhi,New Delhi,Kolkata Howrah Junction,"22.5726460,88.3638950","22.5726460,88.3638950",88.363895,22.572646,0.298611111,0.25,22.83333333,7,1447,63.4,S---T--,New Delhi-Howrah SF Express
SKr,ER,Delhi,Old Delhi,Kolkata Sealdah,"22.5680000,88.3720000","22.5680000,88.3720000",88.372,22.568,0.798611111,0.725694444,22.25,6,1448,65.1,---W---,West Bengal Sampark Kranti Express
SKr,ER,Kolkata,Kolkata Sealdah,Old Delhi,"28.6114296,77.2406949","28.6114296,77.2406949",77.2406949,28.6114296,0.548611111,0.496527778,22.75,5,1448,63.6,--T----,West Bengal Sampark Kranti
Drnt,ER,Delhi,New Delhi,Kolkata Sealdah,"22.5680000,88.3720000","22.5680000,88.3720000",88.372,22.568,0.836805556,0.517361111,16.33333333,0,1453,89,-M---F-,New Delhi-Sealdah AC Duronto Express
Drnt,ER,Kolkata,Kolkata Sealdah,New Delhi,"28.6353080,77.2249600","28.6353080,77.2249600",77.22496,28.635308,0.777777778,0.458333333,16.33333333,0,1453,89,S---T--,Sealdah-New Delhi AC Duronto Express
Raj,ER,Kolkata,Kolkata Sealdah,New Delhi,"28.6353080,77.2249600","28.6353080,77.2249600",77.22496,28.635308,0.701388889,0.430555556,17.5,6,1454,83.1,SMTWTFS,Sealdah-New Delhi Rajdhani Express
Raj,ER,Delhi,New Delhi,Kolkata Sealdah,"22.5680000,88.3720000","22.5680000,88.3720000",88.372,22.568,0.6875,0.427083333,17.75,6,1454,81.9,SMTWTFS,New Delhi-Sealdah Rajdhani Express
Exp,ER,Delhi,Old Delhi,Malda Town,"25.0108408,88.1410967","25.0108408,88.1410967",88.1410967,25.0108408,0.909722222,0.305555556,33.5,57,1456,43.5,S-T-TF-,Farakka Express
Exp,ER,Kolkata,Kolkata Howrah Junction,Bhopal Junction,"22.6864393,77.2744471","22.6864393,77.2744471",77.2744471,22.6864393,0.559027778,0.770833333,29.08333333,23,1459,50.2,-M-----,Howrah-Bhopal Express
Exp,ER,Kolkata,Kolkata Howrah Junction,Kotdwara,"29.7432940,78.5060410","29.7432940,78.5060410",78.506041,29.743294,0.857638889,0.246527778,33.33333333,69,1461,43.8,S-TWTFS,Doon Express Slip
SF,NCR,Kolkata,Kolkata Howrah Junction,Mathura Junction,"27.5716958,77.8639686","27.5716958,77.8639686",77.8639686,27.5716958,0.739583333,0.854166667,26.75,33,1475,55.1,-----F-,Chambal Express
SF,NR,Delhi,Delhi Hazrat Nizamuddin,"Bhusaval, Maharashtra","21.0473709,75.7876590","21.0473709,75.7876590",75.787659,21.0473709,0.642361111,0.659722222,24.41666667,24,1476,60.5,S----F-,H.Nizamuddin-Bhusaval Gondwana Express
SF,CR,Mumbai,Mumbai Dadar Central,Varanasi Junction,"25.3262612,82.9862058","25.3262612,82.9862058",82.9862058,25.3262612,0.024305556,0.159722222,27.25,11,1480,54.3,SMTWTFS,Dadar Varanasi Superfast Express
SF,CR,Mumbai,Mumbai Lokmanya Tilak Terminus,Varanasi Junction,"25.3262612,82.9862058","25.3262612,82.9862058",82.9862058,25.3262612,0.222222222,0.295138889,25.75,12,1483,57.6,-M--TF-,Lokmanya Tilak Terminus-Varanasi Express
SF,NFR,Delhi,New Delhi,"New Jalpaiguri, West Bengal","26.5501631,88.7049705","26.5501631,88.7049705",88.7049705,26.5501631,0.631944444,0.774305556,27.41666667,16,1497,54.6,S--W---,New Delhi New Jalpaiguri SuperFast Express
Raj,NR,Delhi,New Delhi,Bilaspur Junction,"22.0571979,82.1676240","22.0571979,82.1676240",82.167624,22.0571979,0.65625,0.5,20.25,7,1501,74.1,#NAME?,Bilaspur Rajdhani Express
SF,ECoR,Mumbai,Mumbai Lokmanya Tilak Terminus,Visakhapatnam Junction,"17.7368076,83.3073078","17.7368076,83.3073078",83.3073078,17.7368076,0.517361111,0.614583333,26.33333333,12,1502,57,S---T--,Mumbai LTT-Visakhapatnam SF Express
Exp,CR,Mumbai,Mumbai Lokmanya Tilak Terminus,Rae Bareli Junction,"26.7779896,80.9429337","26.7779896,80.9429337",80.9429337,26.7779896,0.222222222,0.347222222,27,18,1502,55.6,#NAME?,Saket Express Slip
Exp,CR,Mumbai,Mumbai Lokmanya Tilak Terminus,"Faizabad, Uttar Pradesh","26.7793470,82.1421590","26.7793470,82.1421590",82.142159,26.779347,0.222222222,0.392361111,28.08333333,18,1505,53.6,#NAME?,Saket Express
Drnt,NR,Delhi,Delhi Hazrat Nizamuddin,Pune,"18.5204303,73.8567437","18.5204303,73.8567437",73.8567437,18.5204303,0.458333333,0.291666667,20,0,1508,75.4,-M--T--,Hazrat Nizamuddin-Pune AC Duronto Express
Exp,CR,Mumbai,Mumbai Lokmanya Tilak Terminus,Allahabad Junction,"25.4004598,81.5807583","25.4004598,81.5807583",81.5807583,25.4004598,0.222222222,0.368055556,27.5,23,1511,54.9,S-T----,Tulsi Express
Exp,CR,Mumbai,Mumbai Lokmanya Tilak Terminus,Coimbatore Main Junction,"11.1123263,76.9359764","11.1123263,76.9359764",76.9359764,11.1123263,0.940972222,0.270833333,31.91666667,31,1518,47.6,SMTWTFS,Mumbai LTT-Coimbatore Express
Exp,ER,Kolkata,Kolkata Howrah Junction,Kathgodam,"29.2693264,79.5441198","29.2693264,79.5441198",79.5441198,29.2693264,0.90625,0.395833333,35.75,63,1521,42.5,SMTWTFS,Bagh Express
Exp,ER,Kolkata,Kolkata Chitpur,Old Delhi,"28.6114296,77.2406949","28.6114296,77.2406949",77.2406949,28.6114296,0.84375,0.131944444,30.91666667,65,1527,49.4,SMTWTFS,Lal Quila Express
Exp,NFR,Kolkata,Kolkata Howrah Junction,Dibrugarh,"27.4728327,94.9119621","27.4728327,94.9119621",94.9119621,27.4728327,0.732638889,0.239583333,36.16666667,50,1528,42.2,SMTWTFS,Kamrup Express
Raj,ER,Kolkata,Kolkata Howrah Junction,New Delhi,"28.6353080,77.2249600","28.6353080,77.2249600",77.22496,28.635308,0.586805556,0.413194444,19.83333333,6,1530,77.1,S------,Howrah-New Delhi Rajdhani Express
SF,ER,Kolkata,Kolkata Howrah Junction,New Delhi,"28.6353080,77.2249600","28.6353080,77.2249600",77.22496,28.635308,0.340277778,0.305555556,23.16666667,22,1530,66,#NAME?,Poorva Express
SF,ER,Delhi,New Delhi,Kolkata Howrah Junction,"22.5726460,88.3638950","22.5726460,88.3638950",88.363895,22.572646,0.680555556,0.697916667,24.41666667,22,1530,62.7,S--WT-S,Poorva Express
Exp,CR,Mumbai,Mumbai CST,Varanasi Junction,"25.3262612,82.9862058","25.3262612,82.9862058",82.9862058,25.3262612,0.006944444,0.194444444,28.5,25,1533,53.8,SMTWTFS,Mahanagari Express
Exp,NCR,Mumbai,Mumbai Lokmanya Tilak Terminus,Allahabad Junction,"25.4004598,81.5807583","25.4004598,81.5807583",81.5807583,25.4004598,0.659722222,0.909722222,30,16,1533,51.1,----T--,Mumbai LTT-Allahabad Special
SF,ER,Kolkata,Kolkata Howrah Junction,Haridwar Junction,"29.9456906,78.1642478","29.9456906,78.1642478",78.1642478,29.9456906,0.548611111,0.677083333,27.08333333,14,1536,56.7,SM-WT-S,Kumbh Express
Exp,ER,Delhi,Old Delhi,Kolkata Howrah Junction,"22.5726460,88.3638950","22.5726460,88.3638950",88.363895,22.572646,0.652777778,0.253472222,38.41666667,89,1540,40.1,SMTWTFS,Janata Express
Raj,ER,Delhi,New Delhi,Kolkata Howrah Junction,"22.5726460,88.3638950","22.5726460,88.3638950",88.363895,22.572646,0.708333333,0.527777778,19.66666667,6,1542,78.4,-----F-,New Delhi-Howrah Rajdhani Express
SF,SCR,Kolkata,Kolkata Howrah Junction,Secunderabad Junction,"17.4332580,78.5022280","17.4332580,78.5022280",78.502228,17.433258,0.309027778,0.399305556,26.16666667,22,1545,59,SMTWTFS,Howrah - Secunderabad Falaknuma SF Express
SF,CR,Mumbai,Mumbai Lokmanya Tilak Terminus,Sultanpur,"26.2647757,82.0727061","26.2647757,82.0727061",82.0727061,26.2647757,0.694444444,0.822916667,27.08333333,11,1550,57.2,S------,LTT Sultanpur Superfast Weekly Express
Exp,ER,Delhi,Old Delhi,Kolkata Chitpur,"22.6101568,88.3712796","22.6101568,88.3712796",88.3712796,22.6101568,0.868055556,0.3125,34.66666667,68,1552,44.8,SMTWTFS,Lal Quila Express
Exp,ER,Kolkata,Kolkata Howrah Junction,Dehradun,"30.3164945,78.0321918","30.3164945,78.0321918",78.0321918,30.3164945,0.857638889,0.298611111,34.58333333,73,1557,45,SMTWTFS,Doon Express
SF,CR,Mumbai,Mumbai Lokmanya Tilak Terminus,Partapgarh Junction,"25.9129855,82.0013882","25.9129855,82.0013882",82.0013882,25.9129855,0.684027778,0.788194444,26.5,11,1583,59.7,S-T----,Udyog Nagri Express
SF,ER,Kolkata,Kolkata Howrah Junction,Dehradun,"30.3164945,78.0321918","30.3164945,78.0321918",78.0321918,30.3164945,0.548611111,0.75,28.83333333,15,1587,55,--T--F-,Upasana Express
Exp,SER,Kolkata,Kolkata Howrah Junction,Hyderabad Deccan Nampally,"17.3836400,78.4669640","17.3836400,78.4669640",78.466964,17.38364,0.489583333,0.770833333,30.75,56,1592,51.8,SMTWTFS,East Coast Express
Exp,SER,Kolkata,Kolkata Shalimar,Haridwar Junction,"29.9456906,78.1642478","29.9456906,78.1642478",78.1642478,29.9456906,0.722222222,0.961805556,29.75,13,1595,53.6,S------,Kolkata Shalimar-Haridwar Puja Special
SF,SER,Kolkata,Kolkata Santragachi Junction,Tirupati Main,"13.6284184,79.3875396","13.6284184,79.3875396",79.3875396,13.6284184,0.670138889,0.75,25.91666667,14,1597,61.6,S------,Santragachi-Tirupati Superfast Express
Drnt,CR,Mumbai,Mumbai Lokmanya Tilak Terminus,Ernakulam Junction (South),"9.9701017,76.2911740","9.9701017,76.2911740",76.291174,9.9701017,0.868055556,0.739583333,20.91666667,0,1599,76.4,#NAME?,Mumbai LTT Ernakulam AC Duronto Express
SF,NER,Mumbai,Mumbai Lokmanya Tilak Terminus,"Faizabad, Uttar Pradesh","26.7793470,82.1421590","26.7793470,82.1421590",82.142159,26.779347,0.604166667,0.736111111,27.16666667,13,1600,58.9,-M-----,Mumbai LTT - Faizabad SF Express
Exp,NR,Mumbai,Mumbai Lokmanya Tilak Terminus,Bareilly,"28.3670355,79.4304381","28.3670355,79.4304381",79.4304381,28.3670355,0.336805556,0.652777778,31.58333333,25,1608,50.9,-M-----,Mumbai LTT Bareilly Express
SF,SER,Kolkata,Kolkata Shalimar,Tirupati Main,"13.6284184,79.3875396","13.6284184,79.3875396",79.3875396,13.6284184,0.659722222,0.75,26.16666667,18,1616,61.8,----T--,Shalimar-Tirupati Special
SF,NR,Delhi,Delhi Hazrat Nizamuddin,Raigarh,"21.8956670,83.3952450","21.8956670,83.3952450",83.395245,21.895667,0.642361111,0.795138889,27.66666667,30,1626,58.8,#NAME?,Gondwana Express
Exp,CR,Mumbai,Mumbai Lokmanya Tilak Terminus,Varanasi Junction,"25.3262612,82.9862058","25.3262612,82.9862058",82.9862058,25.3262612,0.527777778,0.809027778,30.75,37,1640,53.3,SMTWTFS,Kamayani Express
SF,WR,Kolkata,Kolkata Sealdah,Ajmer Junction,"26.7987444,75.0244674","26.7987444,75.0244674",75.0244674,26.7987444,0.972222222,0.114583333,27.41666667,16,1642,59.9,SMTWTFS,Sealdah Ajmer Express
SF,SR,Chennai,Chennai Central,Haldia,"22.0604590,88.1097480","22.0604590,88.1097480",88.109748,22.060459,0.607638889,0.756944444,27.58333333,11,1647,59.7,----T--,Sangrami SF Expres
Exp,NR,Delhi,Old Delhi,Alipur Duar Junction,"26.5253080,89.5435500","26.5253080,89.5435500",89.54355,26.525308,0.277777778,0.746527778,35.25,55,1651,46.8,SMTWTFS,Sikkim Mahananda Express
Raj,NR,Delhi,Delhi Hazrat Nizamuddin,Secunderabad Junction,"17.4332580,78.5022280","17.4332580,78.5022280",78.502228,17.433258,0.666666667,0.583333333,22,4,1660,75.5,S------,Secunderabad Rajdhani Express
Drnt,SCR,Delhi,Delhi Hazrat Nizamuddin,Secunderabad Junction,"17.4332580,78.5022280","17.4332580,78.5022280",78.502228,17.433258,0.659722222,0.583333333,22.16666667,0,1660,74.9,-M---F-,Hazrat Nizamuddin-Secunderabad Duronto Express
SF,SER,Kolkata,Kolkata Howrah Junction,Chennai Central,"13.0836340,80.2742100","13.0836340,80.2742100",80.27421,13.083634,0.618055556,0.71875,26.41666667,10,1662,62.9,SMTWTFS,Coromandel Express
SF,SER,Chennai,Chennai Central,Kolkata Howrah Junction,"22.5726460,88.3638950","22.5726460,88.3638950",88.363895,22.572646,0.364583333,0.493055556,27.08333333,12,1662,61.4,SMTWTFS,Coromandel Express
SF,SER,Kolkata,Kolkata Howrah Junction,Chennai Central,"13.0836340,80.2742100","13.0836340,80.2742100",80.27421,13.083634,0.989583333,0.159722222,28.08333333,33,1662,59.2,SMTWTFS,Howrah Chennai Superfast Mail
SF,SER,Chennai,Chennai Central,Kolkata Howrah Junction,"22.5726460,88.3638950","22.5726460,88.3638950",88.363895,22.572646,0.986111111,0.173611111,28.5,34,1662,58.3,SMTWTFS,Chennai-Howrah SF Mail
SF,SCR,Delhi,Delhi Hazrat Nizamuddin,Hyderabad Deccan Nampally,"17.3836400,78.4669640","17.3836400,78.4669640",78.466964,17.38364,0.951388889,0.208333333,30.16666667,43,1670,55.4,SMTWTFS,Dakshin SF Express
SF,SCR,Delhi,New Delhi,Hyderabad Deccan Nampally,"17.3836400,78.4669640","17.3836400,78.4669640",78.466964,17.38364,0.729166667,0.826388889,26.33333333,14,1677,63.7,SMTWTFS,Andhra Pradesh Express
SF,NER,Mumbai,Mumbai Lokmanya Tilak Terminus,Gorakhpur Junction,"26.5052677,83.7784115","26.5052677,83.7784115",83.7784115,26.5052677,0.465277778,0.739583333,30.58333333,11,1680,54.9,SMTWTFS,Mumbai LTT-Gorakhpur SF Express
Exp,CR,Mumbai,Mumbai Lokmanya Tilak Terminus,Gorakhpur Junction,"26.5052677,83.7784115","26.5052677,83.7784115",83.7784115,26.5052677,0.947916667,0.309027778,32.66666667,45,1680,51.4,SMTWTFS,Kushinagar Express
Exp,WR,Mumbai,Mumbai Bandra Terminus,Dehradun,"30.3164945,78.0321918","30.3164945,78.0321918",78.0321918,30.3164945,0.986111111,0.732638889,41.91666667,92,1682,40.1,SMTWTFS,Bandra T - Dehradun Express
Exp,CR,Mumbai,Mumbai Lokmanya Tilak Terminus,Madurai Junction,"9.9177100,78.1116300","9.9177100,78.1116300",78.11163,9.91771,0.010416667,0.520833333,36.25,25,1702,47,-----F-,Mumbai LTT - Madurai (Weekly) Express
SF,SER,Mumbai,Mumbai Lokmanya Tilak Terminus,"Hatia, Jharkhand","22.7492100,85.9169350","22.7492100,85.9169350",85.916935,22.74921,0.010416667,0.15625,27.5,15,1706,62,SM-----,Mumbai LTT-Hatia Express
SF,CR,Mumbai,Mumbai CST,Rajendra Nagar Bihar,"25.6053291,85.1647866","25.6053291,85.1647866",85.1647866,25.6053291,0.975694444,0.194444444,29.25,12,1714,58.6,SMTWTFS,Mumbai CST-RajendraNagar Patna Express
Exp,NER,Mumbai,Mumbai Lokmanya Tilak Terminus,Gorakhpur Junction,"26.5052677,83.7784115","26.5052677,83.7784115",83.7784115,26.5052677,0.274305556,0.798611111,36.58333333,70,1714,46.9,SMTWTFS,Kashi Express
Exp,ECR,Mumbai,Mumbai Lokmanya Tilak Terminus,Rajendra Nagar Bihar,"25.6053291,85.1647866","25.6053291,85.1647866",85.1647866,25.6053291,0.927083333,0.413194444,35.66666667,61,1715,48.1,SMTWTFS,Mumbai LTT-Patna RajendraNagar Express
Drnt,ECoR,Delhi,New Delhi,Bhubaneswar,"20.2960587,85.8245398","20.2960587,85.8245398",85.8245398,20.2960587,0.541666667,0.461805556,22.08333333,0,1724,78.1,-M-----,New Delhi-Bhubaneswar Duronto Express
Raj,ECoR,Delhi,New Delhi,Bhubaneswar,"20.2960587,85.8245398","20.2960587,85.8245398",85.8245398,20.2960587,0.722222222,0.666666667,22.66666667,10,1724,76.1,SM---F-,New Delhi-Bhubaneswar Rajdhani Express
Exp,CR,Mumbai,Mumbai Lokmanya Tilak Terminus,Gorakhpur Junction,"26.5052677,83.7784115","26.5052677,83.7784115",83.7784115,26.5052677,0.454861111,0.84375,33.33333333,21,1733,52,SM-W-F-,Godaan Express
SF,ER,Kolkata,Kolkata Howrah Junction,Kalka,"30.8369760,76.9342950","30.8369760,76.9342950",76.934295,30.836976,0.819444444,0.1875,32.83333333,37,1743,53.1,SMTWTFS,Kalka Mail
Exp,WR,Kolkata,Kolkata Howrah Junction,Indore Junction BG,"22.7195687,75.8577258","22.7195687,75.8577258",75.8577258,22.7195687,0.739583333,0.069444444,31.91666667,33,1754,55,#NAME?,Shipra Express
SF,NFR,Kolkata,Kolkata Howrah Junction,"Puttaparthi, Anantapur district, Andhra Pradesh","14.1675000,77.8113889","14.1675000,77.8113889",77.8113889,14.1675,0.659722222,0.934027778,30.58333333,13,1763,57.6,---W---,Howrah Prasanti Nilayam SF Express
SF,CR,Mumbai,Mumbai Lokmanya Tilak Terminus,Haridwar Junction,"29.9456906,78.1642478","29.9456906,78.1642478",78.1642478,29.9456906,0.329861111,0.552083333,29.33333333,9,1772,60.4,-M--T--,Mumbai LTT -Haridwar AC Express
Exp,CR,Mumbai,Mumbai Lokmanya Tilak Terminus,Chhapra Junction,"25.7882080,84.7246994","25.7882080,84.7246994",84.7246994,25.788208,0.454861111,0.871527778,34,22,1772,52.1,#NAME?,Godaan Express
Exp,WR,Mumbai,Mumbai Central,Firozpur Cantt.,"30.9146050,74.6159050","30.9146050,74.6159050",74.615905,30.914605,0.309027778,0.930555556,38.91666667,90,1772,45.5,SMTWTFS,Mumbai Firozpur Janata Express
SF,SER,Mumbai,Mumbai Lokmanya Tilak Terminus,Bhubaneswar,"20.2960587,85.8245398","20.2960587,85.8245398",85.8245398,20.2960587,0.010416667,0.315972222,31.33333333,16,1788,57.1,#NAME?,Lokmanya Tilak Terminus-Bhubaneswar Express
SF,NFR,Kolkata,Kolkata Howrah Junction,Sainagar Shirdi,"19.7769008,74.5053095","19.7769008,74.5053095",74.5053095,19.7769008,0.607638889,0.854166667,29.91666667,13,1791,59.9,----T--,Howrah-SainagarShirdi Express
Exp,CR,Mumbai,Mumbai Lokmanya Tilak Terminus,Muzaffarpur Junction,"26.1222744,85.3778841","26.1222744,85.3778841",85.3778841,26.1222744,0.510416667,0.947916667,34.5,35,1791,51.9,#NAME?,Pawan Express
SF,SER,Delhi,New Delhi,Puri,"19.8133822,85.8314655","19.8133822,85.8314655",85.8314655,19.8133822,0.270833333,0.517361111,29.91666667,26,1794,60,#NAME?,New Delhi-Puri Superfast Express
SKr,ECoR,Delhi,New Delhi,Bhubaneswar,"20.2960587,85.8245398","20.2960587,85.8245398",85.8245398,20.2960587,0.298611111,0.506944444,29,9,1799,62,--T--F-,Orissa Sampark Kranti Express
Raj,ECoR,Delhi,New Delhi,Bhubaneswar,"20.2960587,85.8245398","20.2960587,85.8245398",85.8245398,20.2960587,0.722222222,0.729166667,24.16666667,10,1800,74.5,#NAME?,New Delhi-Bhubaneswar Rajdhani Express
SF,ER,Kolkata,Kolkata Chitpur,Nangal Dam,"31.3818060,76.3640530","31.3818060,76.3640530",76.364053,31.381806,0.319444444,0.652777778,32,13,1803,56.3,----T--,Kolkata- Nangal Dam Express
Exp,SR,Mumbai,Mumbai Lokmanya Tilak Terminus,Trivandrum Central,"8.5339492,76.9898676","8.5339492,76.9898676",76.9898676,8.5339492,0.486111111,0.777777778,31,43,1804,58.2,SMTWTFS,Netravati Express
GR,SR,Mumbai,Mumbai Lokmanya Tilak Terminus,Trivandrum Kochuveli,"8.5116462,76.8965961","8.5116462,76.8965961",76.8965961,8.5116462,0.704861111,0.854166667,27.58333333,23,1812,65.7,-M---F-,MumbaiLTT-Kochuveli Garib Rath
SF,ER,Kolkata,Kolkata Chitpur,Amritsar Junction,"31.6313691,74.8602163","31.6313691,74.8602163",74.8602163,31.6313691,0.520833333,0.701388889,28.33333333,10,1812,64,#NAME?,Kolkata-Amritsar Superfast Express
SF,ER,Kolkata,Kolkata Howrah Junction,Jodhpur Junction,"26.4902597,72.6718944","26.4902597,72.6718944",72.6718944,26.4902597,0.979166667,0.25,30.5,24,1814,59.5,SMTWTFS,Howrah-Jodhpur SF Express
SF,ER,Kolkata,Kolkata Howrah Junction,Jodhpur Junction,"26.4902597,72.6718944","26.4902597,72.6718944",72.6718944,26.4902597,0.979166667,0.25,30.5,24,1814,59.5,SMTWTFS,Howrah-Bikaner Express
SF,CR,Mumbai,Mumbai Lokmanya Tilak Terminus,Bhubaneswar,"20.2960587,85.8245398","20.2960587,85.8245398",85.8245398,20.2960587,0.857638889,0.229166667,32.91666667,23,1818,55.2,S------,Lokmanya Tilak Terminus-Bhubaneshwar Express
SF,WR,Mumbai,Mumbai Bandra Terminus,Amritsar Junction,"31.6313691,74.8602163","31.6313691,74.8602163",74.8602163,31.6313691,0.482638889,0.802083333,31.66666667,40,1821,57.5,SMTWTFS,Paschim Express
SF,WR,Mumbai,Mumbai Bandra Terminus,Amritsar Junction,"31.6313691,74.8602163","31.6313691,74.8602163",74.8602163,31.6313691,0.482638889,0.802083333,31.66666667,40,1821,57.5,SMTWTFS,Paschim Express Slip
Exp,WR,Mumbai,Mumbai Bandra Terminus,Gorakhpur Junction,"26.5052677,83.7784115","26.5052677,83.7784115",83.7784115,26.5052677,0.944444444,0.569444444,39,63,1844,47.3,S-TW-F-,Awadh Express
Exp,WR,Mumbai,Mumbai Bandra Terminus,Patna Junction,"25.6035902,85.1366123","25.6035902,85.1366123",85.1366123,25.6035902,0.65625,0.145833333,35.75,11,1845,51.6,-M-----,Mumbai BDTS - Patna (Weekly) Express
SF,SCR,Mumbai,Mumbai Lokmanya Tilak Terminus,Puri,"19.8133822,85.8314655","19.8133822,85.8314655",85.8314655,19.8133822,0.010416667,0.399305556,33.33333333,14,1851,55.5,----T--,Mumbai LTT Puri Superfast Express
SF,ECoR,Delhi,New Delhi,Puri,"19.8133822,85.8314655","19.8133822,85.8314655",85.8314655,19.8133822,0.930555556,0.222222222,31,25,1863,60.1,SMTWTFS,Purushottam SF Express
SF,NFR,Delhi,Delhi Anand Vihar Terminus,Guwahati,"26.1471290,91.7355511","26.1471290,91.7355511",91.7355511,26.147129,0.284722222,0.694444444,33.83333333,25,1867,55.2,SMTWTFS,North East Express
Raj,NR,Delhi,New Delhi,Guwahati,"26.1471290,91.7355511","26.1471290,91.7355511",91.7355511,26.147129,0.583333333,0.722222222,27.33333333,11,1879,68.7,----T--,New Delhi-Guwahati Rajdhani Express
Exp,CR,Mumbai,Mumbai Lokmanya Tilak Terminus,Darbhanga Junction,"26.1573879,85.9071330","26.1573879,85.9071330",85.907133,26.1573879,0.510416667,0.055555556,37.08333333,38,1880,50.7,S-T-T--,Pawan Express
SF,ECR,Mumbai,Mumbai Lokmanya Tilak Terminus,Darbhanga Junction,"26.1573879,85.9071330","26.1573879,85.9071330",85.907133,26.1573879,0.472222222,0.881944444,33.83333333,11,1882,55.6,SMTWTFS,Karmabhumi Express
Exp,SR,Mumbai,Mumbai CST,Nagercoil Junction,"8.1746848,77.4440221","8.1746848,77.4440221",77.4440221,8.1746848,0.503472222,0.135416667,39.16666667,37,1882,48.1,S--WTF-,Mumbai CST-Nagercoil Express
SF,NR,Kolkata,Kolkata Chitpur,Bikaner Junction,"28.0145575,73.3159695","28.0145575,73.3159695",73.3159695,28.0145575,0.944444444,0.236111111,31,18,1885,60.8,-----F-,Pratap Express
SF,WR,Mumbai,Mumbai Central,Amritsar Junction,"31.6313691,74.8602163","31.6313691,74.8602163",74.8602163,31.6313691,0.892361111,0.236111111,32.25,32,1891,58.6,SMTWTFS,Golden Temple Mail
SF,SR,Chennai,Chennai Central,Ahmedabad Junction,"23.0300000,72.5800000","23.0300000,72.5800000",72.58,23.03,0.399305556,0.798611111,33.58333333,37,1893,56.4,SMTWTFS,Navajivan Express
SF,ER,Kolkata,Kolkata Sealdah,Amritsar Junction,"31.6313691,74.8602163","31.6313691,74.8602163",74.8602163,31.6313691,0.548611111,0.819444444,30.5,9,1894,62.1,-----F-,Sealdah - Amritsar Superfast Express
SF,ER,Kolkata,Kolkata Sealdah,Amritsar Junction,"31.6313691,74.8602163","31.6313691,74.8602163",74.8602163,31.6313691,0.319444444,0.701388889,33.16666667,20,1898,57.2,S--W---,Akal Takht Express
SF,SER,Kolkata,Kolkata Howrah Junction,Puducherry,"11.9138598,79.8144722","11.9138598,79.8144722",79.8144722,11.9138598,0.979166667,0.368055556,33.33333333,12,1907,57.2,S------,Howrah-Puducherry Express
SF,ECoR,Delhi,New Delhi,Puri,"19.8133822,85.8314655","19.8133822,85.8314655",85.8314655,19.8133822,0.270833333,0.715277778,34.66666667,37,1910,55.1,S-T--F-,Neelachal Express
Mail,ER,Kolkata,Kolkata Howrah Junction,Amritsar Junction,"31.6313691,74.8602163","31.6313691,74.8602163",74.8602163,31.6313691,0.798611111,0.371527778,37.75,55,1910,50.6,SMTWTFS,Howrah-Amritsar Mail
SF,ECoR,Delhi,Delhi Hazrat Nizamuddin,Visakhapatnam Junction,"17.7368076,83.3073078","17.7368076,83.3073078",83.3073078,17.7368076,0.361111111,0.770833333,33.83333333,37,1911,56.5,#NAME?,Samata Express
SF,CR,Delhi,Delhi Hazrat Nizamuddin,Shahu Maharaj Terminus,"16.7024706,74.2379246","16.7024706,74.2379246",74.2379246,16.7024706,0.25,0.680555556,34.33333333,20,1915,55.8,----T--,Nizamuddin-Kolhapur Express
SF,ER,Mumbai,Mumbai Lokmanya Tilak Terminus,Bhagalpur,"25.2400300,86.9845120","25.2400300,86.9845120",86.984512,25.24003,0.336805556,0.770833333,34.41666667,36,1917,55.7,S-T-T--,Mumbai LTT - Bhagalpur SF Express
Exp,ER,Kolkata,Kolkata Howrah Junction,Amritsar Junction,"31.6313691,74.8602163","31.6313691,74.8602163",74.8602163,31.6313691,0.583333333,0.423611111,44.16666667,108,1922,43.5,SMTWTFS,Howrah-Amritsar Express
SF,CR,Mumbai,Mumbai CST,Firozpur Cantt.,"30.9146050,74.6159050","30.9146050,74.6159050",74.615905,30.914605,0.819444444,0.236111111,34,54,1930,56.8,SMTWTFS,Punjab Mail
Exp,CR,Mumbai,Mumbai CST,Bhubaneswar,"20.2960587,85.8245398","20.2960587,85.8245398",85.8245398,20.2960587,0.631944444,0.184027778,37.25,34,1932,51.9,SMTWTFS,Konark Express
Drnt,SER,Kolkata,Kolkata Howrah Junction,Bangalore Yesvantpur Junction,"13.0232118,77.5513735","13.0232118,77.5513735",77.5513735,13.0232118,0.458333333,0.666666667,29,0,1946,67.1,S-TW-FS,Howrah-Yesvantpur Duronto
Exp,SR,Mumbai,Mumbai CST,Trivandrum Central,"8.5339492,76.9898676","8.5339492,76.9898676",76.9898676,8.5339492,0.503472222,0.125,38.91666667,38,1946,50,-M-----,Chhatrapati Shivaji Terminus-Trivandrum Express
SF,NR,Mumbai,Mumbai Bandra Terminus,Jammu Tawi,"33.3773471,74.3107212","33.3773471,74.3107212",74.3107212,33.3773471,0.329861111,0.614583333,30.83333333,22,1950,63.2,SM--TF-,Mumbai Bandra (T.) - Jammu Tawi SF Swaraj Express
Exp,SER,Kolkata,Kolkata Shalimar,Mumbai Lokmanya Tilak Terminus,"19.0697345,72.8919771","19.0697345,72.8919771",72.8919771,19.0697345,0.625,0.201388889,37.83333333,78,1951,51.6,SMTWTFS,Kolkata Shalimar-Mumbai LTT Express
Exp,SER,Mumbai,Mumbai Lokmanya Tilak Terminus,Kolkata Shalimar,"22.5588151,88.3032755","22.5588151,88.3032755",88.3032755,22.5588151,0.909722222,0.510416667,38.41666667,81,1951,50.8,SMTWTFS,Mumbai LTT Kolkata Shalimar Express
SF,CR,Kolkata,Kolkata Howrah Junction,Mumbai Lokmanya Tilak Terminus,"19.0697345,72.8919771","19.0697345,72.8919771",72.8919771,19.0697345,0.954861111,0.239583333,30.83333333,14,1952,63.3,SM-WT--,Jnaneswari Super Deluxe Express
SF,CR,Mumbai,Mumbai Lokmanya Tilak Terminus,Kolkata Howrah Junction,"22.5726460,88.3638950","22.5726460,88.3638950",88.363895,22.572646,0.857638889,0.149305556,31,13,1952,63,#NAME?,Jnaneswari Super Deluxe Express
SF,SER,Kolkata,Kolkata Howrah Junction,Mumbai Lokmanya Tilak Terminus,"19.0697345,72.8919771","19.0697345,72.8919771",72.8919771,19.0697345,0.607638889,0.96875,32.66666667,17,1952,59.8,SMTWTFS,Howrah - Mumbai LTT SF Special
SF,WR,Mumbai,Mumbai Bandra Terminus,Jammu Tawi,"33.3773471,74.3107212","33.3773471,74.3107212",74.3107212,33.3773471,0.704861111,0.069444444,32.75,13,1955,59.7,-M-----,Mumbai Bandra (T.) - Jammu Tawi (Weekly) Special
SF,SER,Kolkata,Kolkata Howrah Junction,Bangalore Yesvantpur Junction,"13.0232118,77.5513735","13.0232118,77.5513735",77.5513735,13.0232118,0.857638889,0.329861111,35.33333333,30,1963,55.6,SMTWTFS,Howrah-Yesvantapur Express
Exp,SR,Mumbai,Mumbai CST,Nagercoil Junction,"8.1746848,77.4440221","8.1746848,77.4440221",77.4440221,8.1746848,0.503472222,0.232638889,41.5,44,1967,47.4,#NAME?,Mumbai-Nagercoil (Via Tirupati) Express
Drnt,SER,Kolkata,Kolkata Howrah Junction,Mumbai CST,"18.9439272,72.8360390","18.9439272,72.8360390",72.836039,18.9439272,0.347222222,0.4375,26.16666667,0,1968,75.2,-MTW-F-,Howrah-Mumbai CST AC Duronto Express
Drnt,SER,Mumbai,Mumbai CST,Kolkata Howrah Junction,"22.5726460,88.3638950","22.5726460,88.3638950",88.363895,22.572646,0.71875,0.819444444,26.41666667,0,1968,74.5,S-TWT--,Mumbai CST-Howrah AC Duronto Express
SF,SER,Mumbai,Mumbai CST,Kolkata Howrah Junction,"22.5726460,88.3638950","22.5726460,88.3638950",88.363895,22.572646,0.25,0.520833333,30.5,23,1968,64.5,SMTWTFS,Gitanjali Express
SF,SER,Kolkata,Kolkata Howrah Junction,Mumbai CST,"18.9439272,72.8360390","18.9439272,72.8360390",72.836039,18.9439272,0.576388889,0.888888889,31.5,22,1968,62.5,SMTWTFS,Gitanjali Express
SF,SER,Mumbai,Mumbai CST,Kolkata Howrah Junction,"22.5726460,88.3638950","22.5726460,88.3638950",88.363895,22.572646,0.461805556,0.8125,32.41666667,18,1968,60.7,S------,Mumbai Chhatrapati Shivaji Terminus-Howrah Express
SF,SER,Kolkata,Kolkata Howrah Junction,Mumbai CST,"18.9439272,72.8360390","18.9439272,72.8360390",72.836039,18.9439272,0.607638889,0.979166667,32.91666667,17,1968,59.8,-----F-,Howrah-Mumbai Chhatrapati Shivaji Terminus Express
SF,SER,Kolkata,Kolkata Howrah Junction,Mumbai CST,"18.9439272,72.8360390","18.9439272,72.8360390",72.836039,18.9439272,0.84375,0.225694444,33.16666667,39,1968,59.3,SMTWTFS,Howrah-Mumbai CST Mail
SF,SER,Mumbai,Mumbai CST,Kolkata Howrah Junction,"22.5726460,88.3638950","22.5726460,88.3638950",88.363895,22.572646,0.857638889,0.243055556,33.25,41,1968,59.2,SMTWTFS,Mumbai CST - Howrah Mail
Exp,NER,Mumbai,Mumbai CST,Chhapra Junction,"25.7882080,84.7246994","25.7882080,84.7246994",84.7246994,25.788208,0.649305556,0.222222222,37.75,15,1973,52.3,-----F-,Mumbai CST Chhapra Jansadharan Express
SKr,NER,Delhi,New Delhi,Guwahati,"26.1471290,91.7355511","26.1471290,91.7355511",91.7355511,26.147129,0.989583333,0.34375,32.5,6,1974,60.7,S--WT--,Poorvottar Sampark Kranti Express
Exp,ER,Kolkata,Kolkata Howrah Junction,Shri Ganganagar,"29.9167000,73.8833000","29.9167000,73.8833000",73.8833,29.9167,0.399305556,0.298611111,45.58333333,101,1978,43.4,SMTWTFS,Udyan Abha Toofan Express
Exp,ECR,Mumbai,Mumbai Lokmanya Tilak Terminus,Raxaul Junction,"26.9868646,84.8447217","26.9868646,84.8447217",84.8447217,26.9868646,0.659722222,0.319444444,39.83333333,21,1979,49.7,--T----,Mumbai LTT - Raxaul JanSadharan Express
Exp,ER,Kolkata,Kolkata Chitpur,Jammu Tawi,"33.3773471,74.3107212","33.3773471,74.3107212",74.3107212,33.3773471,0.489583333,0.354166667,44.75,92,1982,44.3,SMTWTFS,Kolkata Chitpur-JammuTawi Express
Exp,SER,Mumbai,Mumbai Lokmanya Tilak Terminus,Ranchi Junction,"22.9655604,85.9987331","22.9655604,85.9987331",85.9987331,22.9655604,0.659722222,0.309027778,39.58333333,27,2012,50.8,#NAME?,Mumbai LTT - Ranchi (Weekly) Express
Drnt,SER,Kolkata,Kolkata Howrah Junction,Pune,"18.5204303,73.8567437","18.5204303,73.8567437",73.8567437,18.5204303,0.347222222,0.482638889,27.25,0,2020,74.1,#NAME?,Howrah- Pune AC Duronto Express
SF,CR,Kolkata,Kolkata Howrah Junction,Pune,"18.5204303,73.8567437","18.5204303,73.8567437",73.8567437,18.5204303,0.913194444,0.284722222,32.91666667,26,2020,61.4,SMTWTFS,Azad Hind Express
SF,ER,Kolkata,Kolkata Howrah Junction,Jammu Tawi,"33.3773471,74.3107212","33.3773471,74.3107212",74.3107212,33.3773471,0.996527778,0.513888889,36.41666667,29,2021,55.5,#NAME?,Himgiri Express
SF,SR,Kolkata,Kolkata Howrah Junction,Tiruchirappalli Junction,"10.7953287,78.6840598","10.7953287,78.6840598",78.6840598,10.7953287,0.673611111,0.184027778,36.25,21,2025,55.9,S---T--,Howrah-Tiruchirappalli Express
Exp,CR,Mumbai,Mumbai Dadar Central,Amritsar Junction,"31.6313691,74.8602163","31.6313691,74.8602163",74.8602163,31.6313691,0.989583333,0.6875,40.75,86,2037,50,SMTWTFS,Dadar Amritsar Express
SF,ER,Mumbai,Mumbai CST,Asansol Junction,"23.6912875,86.9747658","23.6912875,86.9747658",86.9747658,23.6912875,0.461805556,0.96875,36.16666667,16,2043,56.5,---W---,Chhatrapati Shivaji Terminus-Asansol Express
SF,CR,Kolkata,Kolkata Howrah Junction,Mumbai Lokmanya Tilak Terminus,"19.0697345,72.8919771","19.0697345,72.8919771",72.8919771,19.0697345,0.885416667,0.3125,34.25,21,2082,60.8,#NAME?,Samarsata Express
SF,CR,Mumbai,Mumbai Lokmanya Tilak Terminus,Kolkata Howrah Junction,"22.5726460,88.3638950","22.5726460,88.3638950",88.363895,22.572646,0.857638889,0.350694444,35.83333333,22,2082,58.1,---WT--,Samarsata Express
SF,SER,Kolkata,Kolkata Howrah Junction,Ahmedabad Junction,"23.0300000,72.5800000","23.0300000,72.5800000",72.58,23.03,0.996527778,0.559027778,37.5,62,2087,55.7,SMTWTFS,Howrah Ahmedabad Express
Exp,SR,Chennai,Chennai Central,Lucknow,"26.8465108,80.9466832","26.8465108,80.9466832",80.9466832,26.8465108,0.21875,0.857638889,39.33333333,43,2088,53.1,#NAME?,Chennai Lucknow Express
Exp,SER,Kolkata,Kolkata Howrah Junction,Mysore Junction,"12.9016746,77.4684458","12.9016746,77.4684458",77.4684458,12.9016746,0.673611111,0.208333333,36.83333333,19,2093,56.8,-----F-,Howrah - Mysore Special
SKr,NR,Delhi,Delhi Hazrat Nizamuddin,Madgaon Junction,"15.2719444,73.9583333","15.2719444,73.9583333",73.9583333,15.2719444,0.309027778,0.552083333,29.83333333,8,2094,70.2,#NAME?,Goa Sampark Kranti Express
SF,SER,Delhi,Delhi Hazrat Nizamuddin,Visakhapatnam Junction,"17.7368076,83.3073078","17.7368076,83.3073078",83.3073078,17.7368076,0.25,0.725694444,35.41666667,17,2096,59.2,S--W---,Swarna Jayanti Express
SF,SCR,Delhi,Delhi Hazrat Nizamuddin,Visakhapatnam Junction,"17.7368076,83.3073078","17.7368076,83.3073078",83.3073078,17.7368076,0.951388889,0.5625,38.66666667,57,2097,54.2,SMTWTFS,Dakshin Link SF Express
Exp,NWR,Kolkata,Kolkata Chitpur,Ajmer Junction,"26.7987444,75.0244674","26.7987444,75.0244674",75.0244674,26.7987444,0.548611111,0.371527778,43.75,19,2116,48.4,#NAME?,Kolkata Chitpur-Ajmer Weekly Express
Exp,SR,Mumbai,Mumbai CST,Kanniyakumari,"8.0883064,77.5384507","8.0883064,77.5384507",77.5384507,8.0883064,0.65625,0.53125,45,59,2135,47.4,SMTWTFS,Mumbai CST - Kanyakumari Express
SF,ER,Kolkata,Kolkata Sealdah,Udaipur City,"24.5712699,73.6915439","24.5712699,73.6915439",73.6915439,24.5712699,0.548611111,0.125,37.83333333,18,2141,56.6,----T--,Ananya Express
Exp,SER,Kolkata,Kolkata Howrah Junction,Vasco Da Gama,"15.3860329,73.8440398","15.3860329,73.8440398",73.8440398,15.3860329,0.979166667,0.625,39.5,39,2147,54.4,#NAME?,Amaravati Express
Exp,WR,Mumbai,Mumbai Bandra Terminus,Muzaffarpur Junction,"26.1222744,85.3778841","26.1222744,85.3778841",85.3778841,26.1222744,0.944444444,0.909722222,47.16666667,77,2153,45.6,#NAME?,Awadh Express
Drnt,SR,Chennai,Chennai Central,Delhi Hazrat Nizamuddin,"28.5893050,77.2462570","28.5893050,77.2462570",77.246257,28.589305,0.277777778,0.440972222,27.91666667,0,2176,77.9,-M---F-,Chennai-Hazrat Nizamuddin Duronto Express
Raj,NR,Chennai,Chennai Central,Delhi Hazrat Nizamuddin,"28.5893050,77.2462570","28.5893050,77.2462570",77.246257,28.589305,0.256944444,0.430555556,28.16666667,7,2176,77.3,S----F-,Chennai Central-Delhi H.Nizamuddin Rajdhani Expres
GR,SR,Delhi,Delhi Hazrat Nizamuddin,Chennai Central,"13.0836340,80.2742100","13.0836340,80.2742100",80.27421,13.083634,0.666666667,0.84375,28.25,9,2176,77,-M-----,H Nizamuddin-Chennai Garib Rath Express
Raj,NR,Delhi,Delhi Hazrat Nizamuddin,Chennai Central,"13.0836340,80.2742100","13.0836340,80.2742100",80.27421,13.083634,0.666666667,0.84375,28.25,7,2176,77,---W-F-,Delhi H.Nizamuddin-Chennai Central Rajdhani Expres
Drnt,SR,Delhi,Delhi Hazrat Nizamuddin,Chennai Central,"13.0836340,80.2742100","13.0836340,80.2742100",80.27421,13.083634,0.659722222,0.840277778,28.33333333,0,2176,76.8,#NAME?,Hazrat Nizamuddin-Chennai Duronto
GR,SR,Chennai,Chennai Central,Delhi Hazrat Nizamuddin,"28.5893050,77.2462570","28.5893050,77.2462570",77.246257,28.589305,0.256944444,0.430555556,28.16666667,9,2177,77.3,#NAME?,Chennai Central-H.Nizamuddin Garib Rath Express
SF,ER,Kolkata,Kolkata Howrah Junction,Mumbai CST,"18.9439272,72.8360390","18.9439272,72.8360390",72.836039,18.9439272,0.916666667,0.475694444,37.41666667,47,2177,58.2,SMTWTFS,Howrah-Mumbai Mail
SF,ER,Mumbai,Mumbai CST,Kolkata Howrah Junction,"22.5726460,88.3638950","22.5726460,88.3638950",88.363895,22.572646,0.892361111,0.489583333,38.33333333,48,2177,56.8,SMTWTFS,Mumbai-Howrah Mail
SF,SR,Delhi,New Delhi,Chennai Central,"13.0836340,80.2742100","13.0836340,80.2742100",80.27421,13.083634,0.9375,0.302083333,32.75,9,2184,66.7,SMTWTFS,Tamil Nadu Express
SF,SR,Chennai,Chennai Central,New Delhi,"28.6353080,77.2249600","28.6353080,77.2249600",77.22496,28.635308,0.916666667,0.291666667,33,10,2184,66.2,SMTWTFS,Tamil Nadu Express
SF,SR,Chennai,Chennai Central,New Delhi,"28.6353080,77.2249600","28.6353080,77.2249600",77.22496,28.635308,0.802083333,0.263888889,35.08333333,36,2184,62.3,SMTWTFS,Grand Trunk (GT) Express
SF,SR,Delhi,New Delhi,Chennai Central,"13.0836340,80.2742100","13.0836340,80.2742100",80.27421,13.083634,0.777777778,0.260416667,35.58333333,36,2184,61.4,SMTWTFS,GrandTrunk Express
SF,NWR,Chennai,Chennai Central,Jaipur Junction,"26.9209850,75.7854754","26.9209850,75.7854754",75.7854754,26.920985,0.732638889,0.246527778,36.33333333,28,2185,60.1,S-T----,Chennai-Jaipur SF Express
SF,SWR,Delhi,Delhi Hazrat Nizamuddin,Vasco Da Gama,"15.3860329,73.8440398","15.3860329,73.8440398",73.8440398,15.3860329,0.628472222,0.270833333,39.41666667,27,2202,55.9,SMTWTFS,Goa SuperFast Express
SF,SWR,Delhi,Delhi Hazrat Nizamuddin,Vasco Da Gama,"15.3860329,73.8440398","15.3860329,73.8440398",73.8440398,15.3860329,0.628472222,0.270833333,39.41666667,27,2202,55.9,SMTWTFS,H.Nizamuddin Hubli Goa Express Slip
SF,SR,Chennai,Chennai Central,"New Jalpaiguri, West Bengal","26.5501631,88.7049705","26.5501631,88.7049705",88.7049705,26.5501631,0.458333333,0.15625,40.75,17,2257,55.4,---W---,Chennai-NewJalpaiguri SF Express
SKr,SWR,Delhi,Delhi Hazrat Nizamuddin,Bangalore Yesvantpur Junction,"13.0232118,77.5513735","13.0232118,77.5513735",77.5513735,13.0232118,0.28125,0.791666667,36.25,5,2276,62.8,SMT-T-S,Karnataka Sampark Kranti Express
SKr,SCR,Delhi,Delhi Hazrat Nizamuddin,Tirupati Main,"13.6284184,79.3875396","13.6284184,79.3875396",79.3875396,13.6284184,0.309027778,0.899305556,38.16666667,17,2302,60.3,S--W-F-,Andhra Pradesh Sampark Kranti Express
Drnt,NR,Delhi,Delhi Sarai Rohilla,Bangalore Yesvantpur Junction,"13.0232118,77.5513735","13.0232118,77.5513735",77.5513735,13.0232118,0.958333333,0.3125,32.5,0,2314,71.2,---W---,Delhi Sarai Rohilla-Yesvantpur AC Duronto Express
SF,SR,Chennai,Chennai Central,Chhapra Junction,"25.7882080,84.7246994","25.7882080,84.7246994",84.7246994,25.788208,0.732638889,0.486111111,42.08333333,21,2343,55.7,#NAME?,Ganga Kaveri Express
SF,ER,Chennai,Chennai Egmore,Gaya Junction,"24.8042298,84.9996294","24.8042298,84.9996294",84.9996294,24.8042298,0.3125,0.902777778,38.16666667,12,2346,61.5,--T----,Chennai Gaya Express
Exp,SR,Chennai,Chennai Egmore,Jodhpur Junction,"26.4902597,72.6718944","26.4902597,72.6718944",72.6718944,26.4902597,0.635416667,0.458333333,43.75,22,2356,53.9,#NAME?,Chennai Jodhpur Express
Raj,NR,Delhi,Delhi Hazrat Nizamuddin,Bangalore City Junction,"12.9777803,77.5685757","12.9777803,77.5685757",77.5685757,12.9777803,0.868055556,0.277777778,33.83333333,10,2382,70.4,#NAME?,Delhi H Nizamuddin-Bangalore Rajdhani Express
Raj,NR,Delhi,Delhi Hazrat Nizamuddin,Bangalore City Junction,"12.9777803,77.5685757","12.9777803,77.5685757",77.5685757,12.9777803,0.868055556,0.277777778,33.83333333,6,2383,70.4,S--WT--,Hazrat Nizamuddin-Bangalore Rajdhani Express
SF,NR,Delhi,New Delhi,Puducherry,"11.9138598,79.8144722","11.9138598,79.8144722",79.8144722,11.9138598,0.993055556,0.78125,42.91666667,12,2384,55.5,S------,New Delhi-Puducherry SF Exp
SF,SWR,Delhi,New Delhi,Bangalore City Junction,"12.9777803,77.5685757","12.9777803,77.5685757",77.5685757,12.9777803,0.885416667,0.569444444,40.41666667,31,2406,59.5,SMTWTFS,Karnataka Express
SF,SR,Kolkata,Kolkata Howrah Junction,Kanniyakumari,"8.0883064,77.5384507","8.0883064,77.5384507",77.5384507,8.0883064,0.673611111,0.486111111,43.5,29,2431,55.9,-M-----,Howrah-Kanyakumari Express
Raj,NR,Delhi,New Delhi,Dibrugarh Town,"27.4728327,94.9119621","27.4728327,94.9119621",94.9119621,27.4728327,0.583333333,0.208333333,39,17,2443,62.6,#NAME?,New Delhi-Dibrugarh Rajdhani Express
Raj,NR,Delhi,New Delhi,Dibrugarh Town,"27.4728327,94.9119621","27.4728327,94.9119621",94.9119621,27.4728327,0.395833333,0.267361111,44.91666667,22,2463,54.8,S---T--,NewDelhi-Dibrugarh Rajdhani Express
Raj,NR,Delhi,New Delhi,Dibrugarh,"27.4728327,94.9119621","27.4728327,94.9119621",94.9119621,27.4728327,0.395833333,0.239583333,44.25,23,2474,55.9,--T----,New Delhi- Dibrugarh Rajdhani Express
SF,SR,Chennai,Chennai Central,Dehradun,"30.3164945,78.0321918","30.3164945,78.0321918",78.0321918,30.3164945,0.40625,0.208333333,43.25,18,2488,57.5,----T--,Chennai Dehradun Express
SF,SR,Chennai,Chennai Central,Dehradun,"30.3164945,78.0321918","30.3164945,78.0321918",78.0321918,30.3164945,0.40625,0.208333333,43.25,18,2488,57.5,----T--,Chennai Chandigarh Express Slip
SF,WR,Kolkata,Kolkata Howrah Junction,Gandhidham Bg,"23.0687895,70.1479992","23.0687895,70.1479992",70.1479992,23.0687895,0.958333333,0.71875,42.25,14,2509,59.4,-M-----,Howrah Gandhidham Garbha Express
SF,WR,Kolkata,Kolkata Howrah Junction,Porbandar,"21.6417069,69.6292654","21.6417069,69.6292654",69.6292654,21.6417069,0.954861111,0.791666667,44.08333333,27,2551,57.9,#NAME?,Howrah-Porbandar SF Express
Exp,SR,Kolkata,Kolkata Shalimar,Trivandrum Central,"8.5339492,76.9898676","8.5339492,76.9898676",76.9898676,8.5339492,0.947916667,0.9375,47.75,35,2566,53.7,S-T----,Shalimar Tiruvananthapuram Express
SF,SR,Kolkata,Kolkata Shalimar,Nagercoil Junction,"8.1746848,77.4440221","8.1746848,77.4440221",77.4440221,8.1746848,0.958333333,0.916666667,47,42,2583,55,---W---,Shalimar-Nagercoil Gurudev Express
SF,WR,Kolkata,Kolkata Howrah Junction,Okha,"22.4574800,69.0640550","22.4574800,69.0640550",69.064055,22.45748,0.954861111,0.833333333,45.08333333,27,2586,57.4,#NAME?,Howrah-Porbandar SF Express Slip
Mail,NR,Delhi,Old Delhi,Dibrugarh,"27.4728327,94.9119621","27.4728327,94.9119621",94.9119621,27.4728327,0.979166667,0.166666667,52.5,57,2589,49.3,SMTWTFS,Brahmaputra Mail
Exp,NFR,Mumbai,Mumbai Lokmanya Tilak Terminus,Guwahati,"26.1471290,91.7355511","26.1471290,91.7355511",91.7355511,26.147129,0.336805556,0.479166667,51.41666667,44,2594,50.5,#NAME?,Mumbai LTT-Guwahati(Biweekly)Express(via Katihar)
SKr,SWR,Delhi,Delhi Hazrat Nizamuddin,Bangalore Yesvantpur Junction,"13.0232118,77.5513735","13.0232118,77.5513735",77.5513735,13.0232118,0.371527778,0.277777778,45.75,9,2610,57,---W-F-,Karnataka Sampark Kranti Express
SF,SWR,Delhi,Delhi Hazrat Nizamuddin,Mysore Junction,"12.9016746,77.4684458","12.9016746,77.4684458",77.4684458,12.9016746,0.25,0.211805556,47.08333333,30,2617,55.6,-M-----,Nizamuddin-Mysore Swarna Jayanti Express
SF,WR,Kolkata,Kolkata Santragachi Junction,Porbandar,"21.6417069,69.6292654","21.6417069,69.6292654",69.6292654,21.6417069,0.892361111,0.875,47.58333333,32,2658,55.9,S------,Kavi Guru Express
Exp,NFR,Mumbai,Mumbai Lokmanya Tilak Terminus,Kamakhya,"26.6106400,92.9587050","26.6106400,92.9587050",92.958705,26.61064,0.659722222,0.913194444,54.08333333,39,2665,49.3,-M-----,Mumbai LTT - Kamakhya (Weekly) Special
SF,SR,Delhi,Delhi Hazrat Nizamuddin,Coimbatore Main Junction,"11.1123263,76.9359764","11.1123263,76.9359764",76.9359764,11.1123263,0.361111111,0.395833333,48.83333333,26,2671,54.7,---W---,Kongu Express
SKr,SR,Delhi,Delhi Hazrat Nizamuddin,Madurai Junction,"9.9177100,78.1116300","9.9177100,78.1116300",78.11163,9.91771,0.309027778,0.15625,44.33333333,12,2677,60.4,--T-T--,Tamil Nadu Sampark Kranti Express
Exp,NFR,Mumbai,Mumbai Lokmanya Tilak Terminus,Guwahati,"26.1471290,91.7355511","26.1471290,91.7355511",91.7355511,26.147129,0.336805556,0.541666667,52.91666667,52,2735,51.7,-----F-,Mumbai LTT-Guwahati Express
Exp,NFR,Chennai,Chennai Egmore,Guwahati,"26.1471290,91.7355511","26.1471290,91.7355511",91.7355511,26.147129,0.9375,0.204861111,54.41666667,34,2795,51.4,-M-----,ChennaiEgmore-Guwahati Express
Exp,SR,Chennai,Chennai Central,Jammu Tawi,"33.3773471,74.3107212","33.3773471,74.3107212",74.3107212,33.3773471,0.21875,0.548611111,55.91666667,76,2800,50.1,S--WT--,Andaman Express
SF,SR,Delhi,Delhi Hazrat Nizamuddin,Ernakulam Junction (South),"9.9701017,76.2911740","9.9701017,76.2911740",76.291174,9.9701017,0.25,0.25,48,25,2809,58.5,--T----,Millennium Express
SF,SR,Delhi,Delhi Hazrat Nizamuddin,Kanniyakumari,"8.0883064,77.5384507","8.0883064,77.5384507",77.5384507,8.0883064,0.25,0.364583333,50.75,24,2919,57.5,#NAME?,Thirukkural Superfast Express
Exp,NFR,Mumbai,Mumbai Lokmanya Tilak Terminus,Kamakhya,"26.6106400,92.9587050","26.6106400,92.9587050",92.958705,26.61064,0.475694444,0.802083333,55.83333333,21,2942,52.7,---W---,Lokmanya Tilak (T)-Kamakhya Karmabhoomi Express
Drnt,NR,Delhi,Delhi Hazrat Nizamuddin,Ernakulam Junction (South),"9.9701017,76.2911740","9.9701017,76.2911740",76.291174,9.9701017,0.899305556,0.645833333,41.91666667,0,2943,70.2,#NAME?,Hazrat Nizamuddin-Ernakulam Duronto
SF,SR,Delhi,Delhi Hazrat Nizamuddin,Trivandrum Central,"8.5339492,76.9898676","8.5339492,76.9898676",76.9898676,8.5339492,0.25,0.465277778,53.16666667,29,3014,56.7,-----F-,Swarna Jayanti Express
SF,SR,Delhi,New Delhi,Trivandrum Central,"8.5339492,76.9898676","8.5339492,76.9898676",76.9898676,8.5339492,0.479166667,0.607638889,51.08333333,38,3036,59.4,SMTWTFS,Kerala Express
SF,SR,Delhi,Delhi Hazrat Nizamuddin,Ernakulam Junction (South),"9.9701017,76.2911740","9.9701017,76.2911740",76.291174,9.9701017,0.388888889,0.416666667,48.66666667,44,3067,63,SMTWTFS,Mangala Lakshadweep Express
Raj,NR,Delhi,Delhi Hazrat Nizamuddin,Trivandrum Central,"8.5339492,76.9898676","8.5339492,76.9898676",76.9898676,8.5339492,0.458333333,0.211805556,42.08333333,17,3149,74.8,S-TW---,Delhi Hazrat Nizamuddin-Trivandrum Rajdhani
Exp,NFR,Chennai,Chennai Egmore,Dibrugarh,"27.4728327,94.9119621","27.4728327,94.9119621",94.9119621,27.4728327,0.9375,0.75,67.5,46,3352,49.7,----T--,ChennaiEgmore-Dibrugarh Weekly Express
